{"type": "FeatureCollection", "source": "Natural Earth 10m rivers_lake_centerlines (public domain), https://raw.githubusercontent.com/nvkelso/natural-earth-vector/master/geojson/ne_10m_rivers_lake_centerlines.geojson ; filtered to Tigris, Euphrates (incl. Al Furat), Shatt al Arab", "features": [{"type": "Feature", "properties": {"name": "Tigris", "featurecla": "River"}, "geometry": {"type": "MultiLineString", "coordinates": [[[42.376557, 37.062527], [42.383718, 37.040717], [42.397472, 37.017117], [42.414561, 36.995632], [42.452647, 36.965522], [42.47047, 36.954861], [42.488048, 36.955146], [42.507498, 36.97309], [42.507823, 36.957953], [42.503184, 36.937852], [42.503998, 36.921739], [42.5206, 36.918484], [42.513194, 36.896552], [42.515554, 36.887315], [42.523936, 36.87991], [42.534923, 36.863227], [42.508718, 36.861843], [42.503998, 36.851386], [42.51474, 36.84337], [42.534923, 36.849555], [42.56601, 36.836615], [42.582937, 36.826606], [42.596446, 36.796088], [42.612397, 36.789374], [42.654714, 36.788764], [42.659597, 36.790798], [42.663829, 36.795274], [42.669363, 36.79975], [42.678233, 36.801785], [42.690359, 36.799628], [42.699229, 36.794298], [42.729584, 36.766791], [42.747162, 36.753974], [42.75644, 36.750271], [42.764578, 36.74962], [42.772472, 36.747667], [42.781261, 36.740343], [42.758881, 36.733425], [42.749604, 36.727484], [42.747162, 36.719835], [42.753998, 36.711534], [42.764415, 36.712226], [42.799734, 36.726386], [42.808035, 36.725898], [42.822276, 36.719835], [42.8296, 36.714626], [42.83489, 36.708116], [42.843272, 36.692572], [42.851654, 36.704657], [42.861095, 36.710517], [42.872651, 36.712348], [42.887462, 36.712429], [42.8921, 36.706163], [42.888194, 36.692328], [42.877452, 36.671454], [42.905528, 36.66352], [42.904389, 36.646674], [42.886485, 36.635443], [42.863862, 36.64411], [42.857351, 36.643093], [42.83961, 36.64411], [42.831147, 36.643093], [42.830496, 36.640204], [42.831554, 36.63585], [42.829112, 36.630479], [42.822765, 36.623847], [42.818614, 36.617214], [42.818126, 36.610216], [42.822276, 36.602566], [42.79599, 36.59516], [42.771902, 36.577012], [42.753998, 36.552273], [42.747162, 36.524685], [42.751069, 36.505439], [42.761648, 36.498603], [42.794932, 36.5008], [42.832774, 36.498603], [42.863862, 36.493272], [42.921886, 36.493272], [42.935557, 36.490668], [42.972341, 36.476833], [42.979991, 36.470038], [42.977794, 36.462673], [42.968516, 36.45246], [42.966319, 36.44245], [42.968761, 36.433417], [42.974701, 36.426947], [43.000662, 36.409288], [43.03183, 36.399685], [43.048839, 36.390937], [43.061615, 36.397406], [43.08196, 36.399197], [43.123953, 36.397732], [43.117117, 36.380154], [43.125499, 36.367051], [43.138438, 36.356391], [43.14503, 36.345893], [43.148529, 36.343085], [43.166026, 36.333808], [43.172293, 36.328884], [43.17628, 36.320746], [43.185964, 36.287869], [43.172293, 36.287869], [43.178803, 36.277655], [43.196218, 36.256415], [43.199718, 36.250596], [43.205007, 36.238389], [43.216401, 36.229804], [43.227957, 36.223009], [43.233165, 36.216498], [43.237315, 36.204861], [43.247, 36.197821], [43.258311, 36.19241], [43.267182, 36.185411], [43.272472, 36.169379], [43.274669, 36.164984], [43.28712, 36.15001], [43.288259, 36.150702], [43.292491, 36.148383], [43.299246, 36.145697], [43.302989, 36.141384], [43.295421, 36.128445], [43.294526, 36.121283], [43.295909, 36.091824], [43.298595, 36.08157], [43.303722, 36.073432], [43.326264, 36.049994], [43.336192, 36.033067], [43.340017, 36.01435], [43.336192, 35.993679], [43.345876, 35.979926], [43.346202, 35.970811], [43.341401, 35.961046], [43.333995, 35.938666], [43.331065, 35.932481], [43.329112, 35.926052], [43.329356, 35.918524], [43.334565, 35.910956], [43.343191, 35.907823], [43.351492, 35.906521], [43.356619, 35.904242], [43.36085, 35.880683], [43.34962, 35.861111], [43.331635, 35.85281], [43.315684, 35.863308], [43.315684, 35.807563], [43.309093, 35.794908]], [[43.309093, 35.794908], [43.298757, 35.795722], [43.290457, 35.78913], [43.288097, 35.776719], [43.287608, 35.74372], [43.288259, 35.735419], [43.29184, 35.729275], [43.318451, 35.712958], [43.32252, 35.708767], [43.318614, 35.694281], [43.308686, 35.689805], [43.295339, 35.68891], [43.280854, 35.685167], [43.273367, 35.677558], [43.258311, 35.655585], [43.241303, 35.644639], [43.24822, 35.630194], [43.267182, 35.606024], [43.26588, 35.597032], [43.262787, 35.589911], [43.254324, 35.575954], [43.248953, 35.569688], [43.244395, 35.568915], [43.241466, 35.56623], [43.240652, 35.554226], [43.249278, 35.530463], [43.265636, 35.500312], [43.275971, 35.471503], [43.267182, 35.451768], [43.271902, 35.442572], [43.271251, 35.436957], [43.268809, 35.431098], [43.267182, 35.421088], [43.26946, 35.411566], [43.274018, 35.406317], [43.278738, 35.403388], [43.280854, 35.400906], [43.285818, 35.393378], [43.31129, 35.370429], [43.32252, 35.362413], [43.350597, 35.352973], [43.364838, 35.345079], [43.37086, 35.332343], [43.369884, 35.329535], [43.367117, 35.328437], [43.363536, 35.32746], [43.360037, 35.325222], [43.356863, 35.319037], [43.358979, 35.315131], [43.362397, 35.311957], [43.363536, 35.307807], [43.359874, 35.293158], [43.356619, 35.286973], [43.350515, 35.280463], [43.401541, 35.273383], [43.422455, 35.265448], [43.418712, 35.246365], [43.410085, 35.2414], [43.398692, 35.238389], [43.388927, 35.233425], [43.384532, 35.22248], [43.388276, 35.213568], [43.397065, 35.200995], [43.407237, 35.189765], [43.41505, 35.184882], [43.480724, 35.126532], [43.493744, 35.110704], [43.52003, 35.100694], [43.54005, 35.088975], [43.53476, 35.068183], [43.562104, 35.052924], [43.577159, 35.041571], [43.583914, 35.030626], [43.580658, 35.013739], [43.572765, 34.996894], [43.562511, 34.983995], [43.552257, 34.978827], [43.542572, 34.970282], [43.530284, 34.951483], [43.522065, 34.932725], [43.52532, 34.92418], [43.539236, 34.917344], [43.540701, 34.901068], [43.53948, 34.881781], [43.545665, 34.865831], [43.55364, 34.861151], [43.558849, 34.860053], [43.561697, 34.856757], [43.564464, 34.83572], [43.568614, 34.827175], [43.576427, 34.815009], [43.577566, 34.804877], [43.576182, 34.795925], [43.577403, 34.789496], [43.594737, 34.78559], [43.600515, 34.78205], [43.611095, 34.773383], [43.619884, 34.771186], [43.628835, 34.770779], [43.635753, 34.767401], [43.638438, 34.756659], [43.640229, 34.743679], [43.644786, 34.742296], [43.651378, 34.743964], [43.658946, 34.739814], [43.668224, 34.727362], [43.675873, 34.712836], [43.676768, 34.699774], [43.665131, 34.691474], [43.671479, 34.68183], [43.688569, 34.669053], [43.693777, 34.66352], [43.695893, 34.654893], [43.693777, 34.626288], [43.696788, 34.614447], [43.71046, 34.596788], [43.713471, 34.585273], [43.714122, 34.56269], [43.716238, 34.553656], [43.720876, 34.54682], [43.739187, 34.538357], [43.756765, 34.535997], [43.769786, 34.529731], [43.774994, 34.509589], [43.78183, 34.372748], [43.785085, 34.363878], [43.799083, 34.350775], [43.802257, 34.345079], [43.803803, 34.337104], [43.820567, 34.298896], [43.824636, 34.29328], [43.827729, 34.286404], [43.8296, 34.273057], [43.828868, 34.263495], [43.823985, 34.247423], [43.822765, 34.235541], [43.829356, 34.223009], [43.860362, 34.195828], [43.870616, 34.184353], [43.886729, 34.144558], [43.894786, 34.132839], [43.92864, 34.10578], [43.971446, 34.085395], [43.987885, 34.081326], [44.055431, 34.075059], [44.092865, 34.071804], [44.148529, 34.059678], [44.186046, 34.057563], [44.194916, 34.055976], [44.203624, 34.05268], [44.209972, 34.048367], [44.221283, 34.038031], [44.22755, 34.033759], [44.233653, 34.032294], [44.239187, 34.033718], [44.249278, 34.04031], [44.270518, 34.046739], [44.291433, 34.041693], [44.331147, 34.019599], [44.37794, 34.001329], [44.427989, 33.963568], [44.439952, 33.951036], [44.447683, 33.935492], [44.450857, 33.916327], [44.450125, 33.89765], [44.444021, 33.880154], [44.409923, 33.835517], [44.391205, 33.792751], [44.389415, 33.783637], [44.389171, 33.774482], [44.391612, 33.765448], [44.396902, 33.757025], [44.403575, 33.749864], [44.423432, 33.7331], [44.425873, 33.729031], [44.425792, 33.724677], [44.411713, 33.706081], [44.407807, 33.698757], [44.391043, 33.637559], [44.385346, 33.62991], [44.377452, 33.625434], [44.366222, 33.62462], [44.35434, 33.625434], [44.342865, 33.624823], [44.332042, 33.621365], [44.322683, 33.613471], [44.319753, 33.603461], [44.328298, 33.584499], [44.326182, 33.574164], [44.313243, 33.561103], [44.310069, 33.555854], [44.308604, 33.550116], [44.30836, 33.532172], [44.305268, 33.514716], [44.304861, 33.508816], [44.305268, 33.503119], [44.311127, 33.481065], [44.313243, 33.476182], [44.316335, 33.471788], [44.320323, 33.468085], [44.336843, 33.459337], [44.341726, 33.455634], [44.348399, 33.445258], [44.348725, 33.434434], [44.343028, 33.411729], [44.342865, 33.404853], [44.344656, 33.39879], [44.347748, 33.393337], [44.352631, 33.388495], [44.362397, 33.381781], [44.36671, 33.377956], [44.369884, 33.37287], [44.376394, 33.34866], [44.390391, 33.325507], [44.383556, 33.32213], [44.378429, 33.317003], [44.37558, 33.310411], [44.375906, 33.302761], [44.379649, 33.294745], [44.385997, 33.289252], [44.393809, 33.285915], [44.402354, 33.284288], [44.412364, 33.284247], [44.417084, 33.28502], [44.434581, 33.291327], [44.438975, 33.291815], [44.447846, 33.28913], [44.451915, 33.282904], [44.455089, 33.266221], [44.458263, 33.260688], [44.462494, 33.256415], [44.467784, 33.253241], [44.473643, 33.250841], [44.483816, 33.24376], [44.48935, 33.233018], [44.491222, 33.220404], [44.489757, 33.207628], [44.488699, 33.205024], [44.485932, 33.200548], [44.484955, 33.198025], [44.483409, 33.185818], [44.484386, 33.178778], [44.486827, 33.173122], [44.491222, 33.169053], [44.497976, 33.166815], [44.508718, 33.166287], [44.512136, 33.165595], [44.516043, 33.164089], [44.52711, 33.157742], [44.550548, 33.136176], [44.556244, 33.128933], [44.560802, 33.121039], [44.568614, 33.09809], [44.570811, 33.083564], [44.572846, 33.077989], [44.576427, 33.072943], [44.581065, 33.06977], [44.586925, 33.070095], [44.591401, 33.07331], [44.595144, 33.077582], [44.599132, 33.081122], [44.604503, 33.082058], [44.612234, 33.077216], [44.618256, 33.067816], [44.626882, 33.048204], [44.632091, 33.03913], [44.638682, 33.031806], [44.646414, 33.025824], [44.655691, 33.020575], [44.665701, 33.016181], [44.677257, 33.013129], [44.688569, 33.012722], [44.698985, 33.016181], [44.71046, 33.024115], [44.714936, 33.025702], [44.72047, 33.026435], [44.727143, 33.026679], [44.733653, 33.025824], [44.738536, 33.023261], [44.74114, 33.013739], [44.736095, 33.003119], [44.728608, 32.99254], [44.724213, 32.983425], [44.724864, 32.977973], [44.727957, 32.974229], [44.732839, 32.972032], [44.738292, 32.971137], [44.744395, 32.971747], [44.749034, 32.974189], [44.757091, 32.982123], [44.766856, 32.988064], [44.776296, 32.986518], [44.784923, 32.980414], [44.806651, 32.959784], [44.814382, 32.957343], [44.822683, 32.962104], [44.8296, 32.97016], [44.833751, 32.97248], [44.839366, 32.972113], [44.844656, 32.969021], [44.848155, 32.964219], [44.85255, 32.952948], [44.858165, 32.943183], [44.865815, 32.93712], [44.875418, 32.934272], [44.896983, 32.932644], [44.907237, 32.928819], [44.917003, 32.923285], [44.925792, 32.916938], [44.934093, 32.908555], [44.94866, 32.889594], [44.95753, 32.881456], [44.969168, 32.876003], [44.980561, 32.875067], [44.992117, 32.877712], [45.031505, 32.898057], [45.041515, 32.900336], [45.050792, 32.899237], [45.060069, 32.894843], [45.065684, 32.887559], [45.064382, 32.877997], [45.056082, 32.870958], [45.033702, 32.864081], [45.026378, 32.856757], [45.026947, 32.846706], [45.034434, 32.837185], [45.09075, 32.792751], [45.097097, 32.789089], [45.103526, 32.786322], [45.110362, 32.785346], [45.117442, 32.787136], [45.130463, 32.793769], [45.136974, 32.79446], [45.144949, 32.792019], [45.163666, 32.781195], [45.170502, 32.778591], [45.17864, 32.777126], [45.267345, 32.774278], [45.278819, 32.766221], [45.279226, 32.752021], [45.273529, 32.736192], [45.257498, 32.709052], [45.254405, 32.700873], [45.255789, 32.693427], [45.261974, 32.689236], [45.270437, 32.688829], [45.286632, 32.692328], [45.293875, 32.692898], [45.300059, 32.69184], [45.306082, 32.689154], [45.311697, 32.684882], [45.316905, 32.679633], [45.320323, 32.67414], [45.324962, 32.661404], [45.329112, 32.653428], [45.334727, 32.647976], [45.341889, 32.64586], [45.350515, 32.647976], [45.357921, 32.651313], [45.364757, 32.652777], [45.371511, 32.651923], [45.378917, 32.64822], [45.389659, 32.638048], [45.397065, 32.625678], [45.415701, 32.58454], [45.419851, 32.578315], [45.42628, 32.573554], [45.435313, 32.57038], [45.440196, 32.569688], [45.444753, 32.570258], [45.447765, 32.571845], [45.450206, 32.574164], [45.4546, 32.579454], [45.462169, 32.584581], [45.502696, 32.595526], [45.507335, 32.595811], [45.511729, 32.595242], [45.513682, 32.59455], [45.515636, 32.593451], [45.518647, 32.590277], [45.519786, 32.589545], [45.520437, 32.589301], [45.521007, 32.589301], [45.522472, 32.588975], [45.524994, 32.586249], [45.526866, 32.583279], [45.529307, 32.576728], [45.528819, 32.567206], [45.520112, 32.550157], [45.520518, 32.54088], [45.526296, 32.534369], [45.53476, 32.53205], [45.544037, 32.532986], [45.552175, 32.5362], [45.566824, 32.548651], [45.574636, 32.553819], [45.584402, 32.555487], [45.589366, 32.553575], [45.592784, 32.549628], [45.595795, 32.544949], [45.599213, 32.54088], [45.605479, 32.537909], [45.61321, 32.536689], [45.621104, 32.536933], [45.627696, 32.538357], [45.6338, 32.541938], [45.647878, 32.558661], [45.654307, 32.56269], [45.660574, 32.563992], [45.692475, 32.558621], [45.698253, 32.555976], [45.706147, 32.54796], [45.717296, 32.528835], [45.725352, 32.521511], [45.730724, 32.518866], [45.735769, 32.517524], [45.740815, 32.51789], [45.779307, 32.531684], [45.785167, 32.532335], [45.791108, 32.531358], [45.79599, 32.528632], [45.799571, 32.524726], [45.804779, 32.515204], [45.807628, 32.508612], [45.809093, 32.502224]], [[43.309093, 35.794908], [43.308849, 35.794379], [43.315684, 35.794379], [43.309093, 35.794908]], [[45.806895, 32.510932], [45.812104, 32.505927], [45.818858, 32.506415], [45.831554, 32.512478], [45.840912, 32.525336], [45.851492, 32.536485], [45.863862, 32.545233], [45.893158, 32.554755], [45.900645, 32.555732], [45.907319, 32.554714], [45.913666, 32.55211], [45.919526, 32.550401], [45.925222, 32.551134], [45.930675, 32.555854], [45.932872, 32.560329], [45.936941, 32.575303], [45.941173, 32.585232], [45.947683, 32.595526], [45.955658, 32.604438], [45.964773, 32.610175], [45.976573, 32.613389], [46.030854, 32.622178], [46.036062, 32.625108], [46.047781, 32.636542], [46.052826, 32.639472], [46.095795, 32.653144], [46.10434, 32.654568], [46.140636, 32.650173], [46.161876, 32.640896], [46.176524, 32.629828], [46.206472, 32.583441], [46.219005, 32.572374], [46.233816, 32.565212], [46.249766, 32.560858], [46.296967, 32.554511], [46.312022, 32.550157], [46.335948, 32.533026], [46.348888, 32.528266], [46.398367, 32.523953], [46.465261, 32.530707], [46.481619, 32.529364], [46.497081, 32.52558], [46.555431, 32.504218], [46.635671, 32.492458], [46.651459, 32.486396], [46.663178, 32.479356], [46.673106, 32.47073], [46.747813, 32.367214], [46.749522, 32.358222], [46.747569, 32.34988], [46.740652, 32.343777], [46.723643, 32.33747], [46.716075, 32.333035], [46.710053, 32.32571], [46.70696, 32.318183], [46.705577, 32.31037], [46.706065, 32.302517], [46.708425, 32.294704], [46.717865, 32.276679], [46.721609, 32.267361], [46.721772, 32.25727], [46.719249, 32.248603], [46.714854, 32.241156], [46.708914, 32.23489], [46.701915, 32.229356], [46.693614, 32.220811], [46.691905, 32.211371], [46.695079, 32.201239], [46.711192, 32.174587], [46.71339, 32.168565], [46.714122, 32.16352], [46.714285, 32.148139], [46.71575, 32.137559], [46.719493, 32.12877], [46.726085, 32.121772], [46.735362, 32.1164], [46.757335, 32.10932], [46.767182, 32.104112], [46.774425, 32.095486], [46.781016, 32.08157], [46.78419, 32.077826], [46.789073, 32.075141], [46.794444, 32.074246], [46.799897, 32.07453], [46.823741, 32.079535], [46.830089, 32.079372], [46.836925, 32.077826], [46.843842, 32.075303], [46.856456, 32.068305], [46.862804, 32.062079], [46.86671, 32.054755], [46.893647, 31.961941], [46.899343, 31.948554], [46.906342, 31.936835], [46.948334, 31.893175], [46.954845, 31.877875], [46.965587, 31.869249], [46.989268, 31.86225], [47.012787, 31.863105], [47.023692, 31.877875], [47.034434, 31.878974], [47.083914, 31.890652], [47.098725, 31.89586], [47.10963, 31.88288], [47.12322, 31.874538], [47.134776, 31.863837], [47.13974, 31.844021], [47.137625, 31.832953], [47.128347, 31.819607], [47.126069, 31.809882], [47.12794, 31.797227], [47.132091, 31.788031], [47.136729, 31.780341], [47.13974, 31.772325], [47.143972, 31.729275], [47.149832, 31.711371], [47.18336, 31.695339], [47.191661, 31.675482], [47.194347, 31.641384], [47.205496, 31.629503], [47.221283, 31.620673], [47.23585, 31.609442], [47.242198, 31.59044], [47.283702, 31.531521], [47.29241, 31.527452], [47.314708, 31.521918], [47.324148, 31.5185], [47.336029, 31.51081], [47.355479, 31.487738], [47.374522, 31.47252], [47.379975, 31.463894], [47.376231, 31.453315], [47.369558, 31.441352], [47.369558, 31.430121], [47.37558, 31.419379], [47.386811, 31.408637], [47.400076, 31.400499], [47.414154, 31.394151], [47.42628, 31.386746], [47.434011, 31.375108], [47.435151, 31.355821], [47.427989, 31.343858], [47.418549, 31.334662], [47.414073, 31.323594], [47.426036, 31.284613], [47.437266, 31.263251], [47.441173, 31.247504], [47.442556, 31.230902], [47.441417, 31.216824], [47.426524, 31.180935], [47.427745, 31.169623], [47.441417, 31.156317], [47.453868, 31.153428], [47.455658, 31.149197], [47.437592, 31.131456], [47.423106, 31.108913], [47.420909, 31.10696], [47.421967, 31.097724], [47.426687, 31.093614], [47.431651, 31.090277], [47.434011, 31.083075], [47.428722, 31.050482], [47.427989, 31.034857], [47.434011, 31.018826]]]}}, {"type": "Feature", "properties": {"name": "Euphrates", "featurecla": "River"}, "geometry": {"type": "MultiLineString", "coordinates": [[[40.992605, 34.428494], [41.006114, 34.430772], [41.045828, 34.406846], [41.057628, 34.403428], [41.066417, 34.398139], [41.092784, 34.37462], [41.105724, 34.36933], [41.161225, 34.374132], [41.191824, 34.38227], [41.219005, 34.396023], [41.219005, 34.403428], [41.178152, 34.417751], [41.178152, 34.423936], [41.191661, 34.429999], [41.223888, 34.449164], [41.239513, 34.451239], [41.249929, 34.441514], [41.257091, 34.426093], [41.26767, 34.416327], [41.288015, 34.423936], [41.292003, 34.431098], [41.290131, 34.43891], [41.287039, 34.44599], [41.288015, 34.451239], [41.296967, 34.456814], [41.303315, 34.456081], [41.308686, 34.452908], [41.315196, 34.451239], [41.328298, 34.450466], [41.343679, 34.446804], [41.358409, 34.440253], [41.369721, 34.430772], [41.380789, 34.446112], [41.397227, 34.437079], [41.415538, 34.423163], [41.431895, 34.423936], [41.42921, 34.435818], [41.41269, 34.447699], [41.403819, 34.459784], [41.424408, 34.472357], [41.434174, 34.465155], [41.445567, 34.458686], [41.43808, 34.451239], [41.451101, 34.428168], [41.464854, 34.422187], [41.500092, 34.430772], [41.501069, 34.43183], [41.503835, 34.43419], [41.507904, 34.43655], [41.513927, 34.437567], [41.517589, 34.435492], [41.523204, 34.430772], [41.527354, 34.426134], [41.527436, 34.423936], [41.539236, 34.426093], [41.545502, 34.429958], [41.549408, 34.434272], [41.554779, 34.437567], [41.565929, 34.439521], [41.574636, 34.43891], [41.58196, 34.439521], [41.588878, 34.445014], [41.590017, 34.45364], [41.585053, 34.461534], [41.583588, 34.469794], [41.595144, 34.479193], [41.611339, 34.479519], [41.670909, 34.458686], [41.690847, 34.453884], [41.71339, 34.456488], [41.735362, 34.466905], [41.763194, 34.486029], [41.769542, 34.491767], [41.772878, 34.500556], [41.773936, 34.51671], [41.780284, 34.521552], [41.794851, 34.514472], [41.818289, 34.495917], [41.834076, 34.478217], [41.842052, 34.474555], [41.856456, 34.472357], [41.881765, 34.478787], [41.89739, 34.480658], [41.91505, 34.467068], [41.967784, 34.471706], [41.986827, 34.458686], [41.979421, 34.451239], [42.012625, 34.407904], [42.030365, 34.389268], [42.055105, 34.36933], [42.125255, 34.332465], [42.130951, 34.324815], [42.130056, 34.297309], [42.144542, 34.279242], [42.176768, 34.287299], [42.229503, 34.314073], [42.244721, 34.314887], [42.249278, 34.314154], [42.246837, 34.290798], [42.251964, 34.273546], [42.263927, 34.266791], [42.277599, 34.271267], [42.288503, 34.28738], [42.282725, 34.305609], [42.286225, 34.327989], [42.296886, 34.346991], [42.311697, 34.355048], [42.323009, 34.353705], [42.335704, 34.349636], [42.345714, 34.342393], [42.349864, 34.331732], [42.384044, 34.320909], [42.387787, 34.308214], [42.385346, 34.290107], [42.37794, 34.273953], [42.366954, 34.266913], [42.344819, 34.264594], [42.325125, 34.25727], [42.313406, 34.244574], [42.315196, 34.225898], [42.327403, 34.214219], [42.348399, 34.202948], [42.37086, 34.194525], [42.387462, 34.191189], [42.382091, 34.181952], [42.384044, 34.116034], [42.3803, 34.109809], [42.374441, 34.103868], [42.370046, 34.097113], [42.371023, 34.088162], [42.377452, 34.084296], [42.399669, 34.076931], [42.404552, 34.071357], [42.406179, 34.05329], [42.412039, 34.032904], [42.424571, 34.016954], [42.446056, 34.012397], [42.456309, 34.017279], [42.480479, 34.038153], [42.493907, 34.047187], [42.505626, 34.037421], [42.510346, 34.025702], [42.513601, 34.012885], [42.5206, 33.999376], [42.530528, 33.990343], [42.549083, 33.98078], [42.555919, 33.971462], [42.561046, 33.947699], [42.556244, 33.925727], [42.542491, 33.907782], [42.5206, 33.896308], [42.528412, 33.889187], [42.533214, 33.881944], [42.533376, 33.875067], [42.528087, 33.869005], [42.53655, 33.859931], [42.551687, 33.852566], [42.568614, 33.84809], [42.582612, 33.847968], [42.599132, 33.856635], [42.605072, 33.870144], [42.608409, 33.88463], [42.61671, 33.896308], [42.644054, 33.901679], [42.679454, 33.895616], [42.733409, 33.875841], [42.759288, 33.853461], [42.752859, 33.836453], [42.733165, 33.821845], [42.719249, 33.806952], [42.7199, 33.79088], [42.729421, 33.780382], [42.740733, 33.773017], [42.747162, 33.765977], [42.747488, 33.746649], [42.738862, 33.736518], [42.725841, 33.729275], [42.712413, 33.718207], [42.718842, 33.712429], [42.726736, 33.707221], [42.747162, 33.697781], [42.762136, 33.704535], [42.778412, 33.692694], [42.801768, 33.663601], [42.850027, 33.635769], [42.863862, 33.622626], [42.887462, 33.578233], [42.926768, 33.548163], [42.930756, 33.542304], [42.93214, 33.529853], [42.937266, 33.528754], [42.963145, 33.529568], [42.973725, 33.526435], [42.990652, 33.536078], [43.010997, 33.532579], [43.030772, 33.521674], [43.065684, 33.493842], [43.075694, 33.501044], [43.083588, 33.518337], [43.097179, 33.533271], [43.118744, 33.536973], [43.139578, 33.53144], [43.168875, 33.518988], [43.234467, 33.4737], [43.24879, 33.460313], [43.264659, 33.449164], [43.284679, 33.444444], [43.308035, 33.449042], [43.341319, 33.46837], [43.356619, 33.471788], [43.365164, 33.468614], [43.37794, 33.456], [43.384532, 33.45128], [43.389903, 33.451117], [43.395274, 33.453192], [43.398529, 33.455919], [43.398204, 33.457546], [43.404307, 33.454779], [43.412039, 33.446316], [43.41505, 33.444444], [43.423106, 33.446885], [43.430919, 33.45071], [43.436697, 33.450466], [43.439138, 33.440741], [43.444347, 33.428005], [43.456065, 33.425116], [43.4699, 33.425727], [43.480724, 33.423407], [43.480724, 33.430854], [43.486908, 33.430854], [43.480479, 33.415107], [43.483897, 33.407009], [43.494884, 33.403998], [43.511241, 33.40351], [43.52711, 33.405097], [43.536143, 33.409247], [43.555268, 33.423407], [43.559093, 33.410346], [43.566417, 33.400824], [43.575287, 33.397569], [43.583914, 33.40351], [43.597341, 33.397406], [43.606619, 33.388007], [43.610606, 33.37934], [43.607677, 33.375556], [43.630463, 33.373481], [43.641043, 33.379218], [43.644623, 33.396674], [43.668956, 33.388292], [43.693451, 33.372097], [43.714285, 33.352647], [43.727143, 33.334581], [43.73463, 33.334581], [43.736746, 33.34394], [43.74114, 33.351508], [43.747325, 33.354315], [43.754487, 33.348904], [43.757335, 33.337836], [43.75587, 33.311306], [43.761322, 33.300482], [43.766612, 33.299587], [43.77825, 33.306098], [43.785248, 33.303575], [43.789561, 33.298774], [43.79241, 33.291571], [43.799897, 33.278266], [43.803966, 33.259955], [43.808523, 33.252061], [43.815929, 33.252061], [43.815929, 33.25727], [43.817393, 33.258328], [43.815929, 33.265692], [43.836681, 33.260688], [43.842296, 33.244208], [43.841401, 33.223253], [43.843272, 33.204901], [43.860932, 33.182807], [43.878998, 33.181749], [43.88795, 33.192247], [43.878022, 33.204901], [43.90683, 33.212185], [43.922944, 33.193671], [43.93629, 33.168524], [43.956147, 33.155829], [43.964122, 33.157904], [43.971934, 33.167344], [43.980479, 33.170193], [43.988862, 33.169501], [43.995616, 33.16706], [44.000662, 33.164496], [44.004405, 33.163275], [44.019623, 33.160427], [44.05364, 33.146755], [44.069835, 33.142198], [44.069835, 33.136013], [44.047944, 33.139228], [44.040294, 33.13703], [44.035655, 33.129177], [44.048106, 33.127305], [44.059093, 33.121161], [44.066905, 33.112982], [44.069835, 33.104926], [44.07545, 33.099392], [44.102143, 33.089423], [44.11085, 33.080756], [44.097179, 33.080756], [44.124522, 33.054063], [44.138438, 33.030829], [44.146414, 33.025743], [44.158621, 33.032335], [44.174408, 33.00141], [44.178396, 32.986274], [44.179698, 32.964057], [44.174897, 32.944607], [44.175304, 32.934353], [44.183116, 32.929958], [44.195242, 32.929023], [44.202159, 32.925605], [44.205496, 32.918402], [44.206472, 32.906317], [44.214936, 32.888617], [44.253022, 32.879462], [44.261648, 32.865058], [44.264252, 32.846747], [44.270925, 32.831814], [44.289561, 32.799628], [44.278819, 32.785183], [44.2706, 32.75963], [44.26588, 32.735297], [44.265066, 32.724473], [44.255626, 32.716173], [44.220307, 32.607693], [44.222585, 32.570258], [44.239187, 32.536322], [44.295421, 32.466579], [44.302419, 32.446479], [44.292979, 32.426581], [44.288015, 32.410102], [44.295421, 32.389228], [44.316335, 32.35456], [44.333588, 32.295844], [44.340424, 32.286241], [44.35434, 32.274604], [44.353933, 32.248236], [44.343516, 32.203721], [44.344656, 32.182929], [44.357188, 32.118028], [44.360932, 32.112006], [44.388113, 32.088487], [44.3921, 32.076036], [44.394949, 32.062323], [44.398204, 32.052924], [44.430593, 32.021267], [44.446707, 32.001899], [44.453298, 31.980902], [44.454845, 31.97248], [44.458263, 31.96369], [44.463634, 31.955024], [44.47047, 31.946804], [44.477794, 31.935655], [44.479421, 31.925645], [44.479096, 31.915066], [44.485444, 31.878852], [44.487559, 31.816433], [44.491303, 31.799343], [44.498953, 31.78323], [44.504161, 31.765937], [44.501231, 31.745063], [44.496511, 31.740302], [44.479015, 31.726833], [44.473888, 31.717719], [44.474213, 31.704454], [44.484874, 31.686306], [44.487559, 31.672716], [44.494233, 31.659247], [44.510509, 31.644599], [44.549734, 31.620917], [44.614024, 31.600124], [44.624604, 31.59044], [44.626882, 31.577419], [44.632416, 31.571641], [44.640147, 31.568468], [44.648692, 31.562852], [44.679291, 31.525336], [44.6928, 31.516181], [44.739757, 31.495225], [44.758556, 31.491156], [44.764659, 31.486884], [44.769786, 31.478827], [44.776541, 31.468126], [44.786143, 31.463894], [44.789154, 31.463894], [44.798757, 31.476833], [44.81544, 31.486029], [44.834727, 31.490994], [44.851736, 31.491156], [44.864024, 31.485867], [44.875255, 31.476142], [44.892833, 31.457058], [44.905772, 31.445665], [44.919526, 31.43655], [44.934988, 31.430691], [44.953054, 31.429145], [44.960867, 31.431667], [44.976736, 31.441474], [44.987885, 31.443386], [44.997, 31.440945], [45.002696, 31.436062], [45.007091, 31.43122], [45.011729, 31.429145], [45.019542, 31.427069], [45.035737, 31.418077], [45.045909, 31.416083], [45.054698, 31.41706], [45.070811, 31.421332], [45.11614, 31.428087], [45.132498, 31.428005], [45.165538, 31.411648], [45.184581, 31.408311], [45.200287, 31.401801], [45.21046, 31.37641], [45.237641, 31.327663]], [[45.237641, 31.327663], [45.249278, 31.331814], [45.257416, 31.333564], [45.269054, 31.333523], [45.301524, 31.327501], [45.336436, 31.325507], [45.409272, 31.309841], [45.440359, 31.298774], [45.451264, 31.300645], [45.466889, 31.305203]], [[45.237641, 31.327663], [45.237804, 31.327338], [45.234874, 31.326687], [45.237641, 31.327663]], [[45.463145, 31.305203], [45.474539, 31.30744], [45.48463, 31.302517], [45.493175, 31.296454], [45.503429, 31.293565], [45.525645, 31.292548], [45.531993, 31.287787], [45.531668, 31.276231], [45.529226, 31.262722], [45.529063, 31.251573], [45.549571, 31.210639], [45.566661, 31.203233], [45.578298, 31.20128], [45.583751, 31.206895], [45.593761, 31.213813], [45.616791, 31.206163], [45.666515, 31.1789], [45.687429, 31.162177], [45.706472, 31.173407], [45.724701, 31.177924], [45.743175, 31.176378], [45.762462, 31.169623], [45.766205, 31.166042], [45.77825, 31.157823], [45.790701, 31.152859], [45.796641, 31.1588], [45.802257, 31.16238], [45.814952, 31.16116], [45.86085, 31.148301], [45.873546, 31.143134], [45.878998, 31.138292], [45.883718, 31.130642], [45.894542, 31.128689], [45.90797, 31.129014], [45.920177, 31.128038], [45.943858, 31.121894], [45.97462, 31.121365], [45.985444, 31.119452], [45.99586, 31.114366], [46.000987, 31.122016], [46.008556, 31.125841], [46.029307, 31.128038], [46.040538, 31.126288], [46.049571, 31.121609], [46.056244, 31.116726], [46.060313, 31.114366], [46.086518, 31.09044], [46.095225, 31.076239], [46.104421, 31.071885], [46.168549, 31.055284], [46.251964, 31.04446], [46.283783, 31.02501], [46.302989, 31.003241], [46.310476, 30.997097], [46.363048, 30.965399], [46.427175, 30.949978], [46.467377, 30.901801], [46.47877, 30.894721], [46.489757, 30.892686], [46.511485, 30.883653], [46.523448, 30.881659], [46.536143, 30.884304], [46.547374, 30.890408], [46.564464, 30.902167], [46.74822, 30.961778], [46.95045, 30.959825], [46.972097, 30.962185], [46.992279, 30.973497], [47.009044, 30.979315], [47.031749, 30.978298], [47.117931, 30.964952], [47.163259, 30.963568], [47.233897, 30.9713], [47.25587, 30.970404], [47.266531, 30.965888], [47.286143, 30.952094], [47.297374, 30.949978], [47.307058, 30.954901], [47.314708, 30.972724], [47.320893, 30.97663], [47.336436, 30.979926], [47.410574, 31.011013], [47.43336, 31.016425], [47.453217, 31.01496], [47.461925, 31.0008], [47.462413, 30.991645], [47.463634, 30.983222], [47.468516, 30.968451]]]}}, {"type": "Feature", "properties": {"name": "Al Furat", "featurecla": "Lake Centerline"}, "geometry": {"type": "MultiLineString", "coordinates": [[[38.561127, 35.862616], [38.560557, 35.862982], [38.559988, 35.863308], [38.556407, 35.868476], [38.530365, 35.871039], [38.49464, 35.859687], [38.460053, 35.858751], [38.430919, 35.874132], [38.39503, 35.886908], [38.338959, 35.901882], [38.300059, 35.916815], [38.174897, 35.972968], [38.134939, 35.999864], [38.134288, 36.000515], [38.121593, 36.0185], [38.108409, 36.032253], [38.094005, 36.044135], [38.08489, 36.054226], [38.075776, 36.068549], [38.063487, 36.098334], [38.059581, 36.114366], [38.058116, 36.126654], [38.059581, 36.133897], [38.061941, 36.140815], [38.065684, 36.147569], [38.087657, 36.175238], [38.100027, 36.198676], [38.109304, 36.212917], [38.119884, 36.225043], [38.13087, 36.234565], [38.136485, 36.238227], [38.153087, 36.245795], [38.175548, 36.255968], [38.189382, 36.264919], [38.194591, 36.284044], [38.189382, 36.312364], [38.185151, 36.330349], [38.183849, 36.342475]]]}}, {"type": "Feature", "properties": {"name": "Al Furat", "featurecla": "River"}, "geometry": {"type": "MultiLineString", "coordinates": [[[38.025808, 36.835639], [38.033132, 36.821804], [38.032725, 36.809434], [38.030691, 36.796698], [38.032481, 36.781317], [38.038829, 36.771186], [38.046804, 36.763861], [38.050873, 36.75495], [38.04599, 36.740343], [38.051199, 36.740749], [38.061453, 36.740058], [38.066498, 36.740343], [38.062429, 36.729193], [38.062022, 36.718126], [38.066661, 36.709581], [38.077403, 36.706163], [38.083588, 36.701972], [38.091319, 36.683173], [38.097585, 36.6789], [38.142019, 36.672553], [38.169037, 36.664822], [38.190847, 36.651475], [38.195811, 36.65058], [38.206716, 36.650946], [38.21046, 36.648139], [38.215017, 36.634711], [38.217296, 36.630479], [38.228119, 36.622138], [38.233409, 36.617011], [38.286388, 36.535915], [38.293061, 36.528022], [38.2671, 36.512274], [38.256114, 36.462836], [38.22755, 36.452338], [38.203136, 36.438829], [38.192882, 36.407294], [38.183849, 36.342475]], [[38.559988, 35.863308], [38.571544, 35.856879], [38.583018, 35.859809], [38.594819, 35.866156], [38.607839, 35.870144], [38.625011, 35.867621], [38.647553, 35.853054], [38.659597, 35.849677], [38.721446, 35.849677], [38.740896, 35.853217], [38.747651, 35.862087], [38.750499, 35.873236], [38.759207, 35.883816], [38.750987, 35.89171], [38.746593, 35.894314], [38.743337, 35.893134], [38.73878, 35.890001], [38.734793, 35.902208], [38.742931, 35.910264], [38.757498, 35.915351], [38.772227, 35.918524], [38.780203, 35.918036], [38.793386, 35.911811], [38.799571, 35.911689], [38.80421, 35.915839], [38.810802, 35.928656], [38.813243, 35.931586], [38.834483, 35.932725], [38.906016, 35.92475], [39.008718, 35.931586], [39.034272, 35.929267], [39.057546, 35.921413], [39.076101, 35.906602], [39.088145, 35.883816], [39.098399, 35.888617], [39.108328, 35.888739], [39.116466, 35.884874], [39.122325, 35.87755], [39.141205, 35.886298], [39.158946, 35.881049], [39.177013, 35.870469], [39.197358, 35.863308], [39.22991, 35.863471], [39.244233, 35.859687], [39.262706, 35.846259], [39.277599, 35.830756], [39.283376, 35.82921], [39.324311, 35.829169], [39.334239, 35.831977], [39.350841, 35.841579], [39.367117, 35.836005], [39.377208, 35.838406], [39.396088, 35.849677], [39.40089, 35.835883], [39.398204, 35.823065], [39.399832, 35.811469], [39.416515, 35.801215], [39.435476, 35.799343], [39.472585, 35.807929], [39.492279, 35.808661], [39.509939, 35.802761], [39.538829, 35.784613], [39.553722, 35.780788], [39.556651, 35.782904], [39.56129, 35.787624], [39.568126, 35.792304], [39.577891, 35.794379], [39.591075, 35.792914], [39.593028, 35.789089], [39.58961, 35.783637], [39.582123, 35.765815], [39.583751, 35.761501], [39.594737, 35.760281], [39.602957, 35.763007], [39.60963, 35.768988], [39.614187, 35.776557], [39.615815, 35.783881], [39.622325, 35.794623], [39.637462, 35.789862], [39.666596, 35.773953], [39.696218, 35.762478], [39.720307, 35.741563], [39.742605, 35.731757], [39.766043, 35.753445], [39.805268, 35.735175], [39.814382, 35.726142], [39.835541, 35.681749], [39.834239, 35.67414], [39.828136, 35.657904], [39.828136, 35.633979], [39.832286, 35.625596], [39.841563, 35.616563], [39.851085, 35.605007], [39.855968, 35.588935], [39.862234, 35.588935], [39.868337, 35.594102], [39.875418, 35.595486], [39.882416, 35.593573], [39.889415, 35.588935], [39.878022, 35.577989], [39.877533, 35.569363], [39.885509, 35.563747], [39.899425, 35.561632], [39.911713, 35.534044], [39.91684, 35.527452], [39.922374, 35.526435], [39.929291, 35.526882], [39.936046, 35.52851], [39.948497, 35.534776], [39.953624, 35.530626], [39.957286, 35.524115], [39.961192, 35.520697], [39.973155, 35.517646], [39.987804, 35.510525], [40.000255, 35.502387], [40.005463, 35.496161], [40.007904, 35.489203], [40.013601, 35.487494], [40.0206, 35.487738], [40.026541, 35.486599], [40.031749, 35.48253], [40.036876, 35.475165], [40.039643, 35.472276], [40.059337, 35.461046], [40.06544, 35.453721], [40.067556, 35.44123], [40.07724, 35.418077], [40.096121, 35.407091], [40.109304, 35.395331], [40.101817, 35.3699], [40.134695, 35.360053], [40.143321, 35.356228], [40.148529, 35.350409], [40.160737, 35.332628], [40.167247, 35.328925], [40.170177, 35.326606], [40.202566, 35.318061], [40.208263, 35.318386], [40.218354, 35.312201], [40.226654, 35.308946], [40.231944, 35.302802], [40.232026, 35.287909], [40.260753, 35.305365], [40.266856, 35.307807], [40.271658, 35.298936], [40.267589, 35.288601], [40.253184, 35.266872], [40.26588, 35.266059], [40.277843, 35.26793], [40.287364, 35.272732], [40.293549, 35.280463], [40.320811, 35.27086], [40.327647, 35.266872], [40.334239, 35.257921], [40.335704, 35.249457], [40.335948, 35.242011], [40.338471, 35.236396], [40.354421, 35.230089], [40.404226, 35.218614], [40.417735, 35.211615], [40.420421, 35.198757], [40.41269, 35.193142], [40.402436, 35.190009], [40.397227, 35.184882], [40.400401, 35.174262], [40.414561, 35.163642], [40.419688, 35.144802], [40.428722, 35.135321], [40.430675, 35.126532], [40.428966, 35.092353], [40.430675, 35.082465], [40.438569, 35.06684], [40.443614, 35.067979], [40.448985, 35.07453], [40.458018, 35.075019], [40.471121, 35.066718], [40.471121, 35.061794], [40.4546, 35.051134], [40.444591, 35.039374], [40.444428, 35.034857], [40.44866, 35.033393], [40.451182, 35.030626], [40.455577, 35.037787], [40.465017, 35.030707], [40.478526, 35.013536], [40.482188, 35.006374], [40.486827, 34.991563], [40.492198, 34.986274], [40.503022, 34.985622], [40.516612, 34.988471], [40.528331, 34.989325], [40.536388, 34.977484], [40.551036, 34.966986], [40.556407, 34.958075], [40.565684, 34.958604], [40.567882, 34.954901], [40.566905, 34.936632], [40.571707, 34.919745], [40.575776, 34.895087], [40.580984, 34.883246], [40.589773, 34.872504], [40.597585, 34.870714], [40.622569, 34.883246], [40.621104, 34.871894], [40.617117, 34.856309], [40.616303, 34.845649], [40.618256, 34.833564], [40.627371, 34.820909], [40.629405, 34.81155], [40.638276, 34.79682], [40.658783, 34.784776], [40.681895, 34.778428], [40.698253, 34.780829], [40.728526, 34.7567], [40.732432, 34.749823], [40.738862, 34.751044], [40.752696, 34.738389], [40.76474, 34.723497], [40.766531, 34.718126], [40.779226, 34.713894], [40.79005, 34.713975], [40.797781, 34.71894], [40.80071, 34.729031], [40.80421, 34.728827], [40.821788, 34.70543], [40.828624, 34.698269], [40.828624, 34.691474], [40.821218, 34.688178], [40.808116, 34.680243], [40.80071, 34.677191], [40.807872, 34.670437], [40.838878, 34.649848], [40.852061, 34.655056], [40.86085, 34.66474], [40.86964, 34.670437], [40.88323, 34.66352], [40.887706, 34.652208], [40.887787, 34.638739], [40.891694, 34.627305], [40.927175, 34.618476], [40.928803, 34.608018], [40.922374, 34.593777], [40.917979, 34.578192], [40.92213, 34.568183], [40.940359, 34.541571], [40.944753, 34.527615], [40.938487, 34.519843], [40.927257, 34.51203], [40.922293, 34.5008], [40.938406, 34.475775], [40.930593, 34.468329], [40.934662, 34.461778], [40.940929, 34.457953], [40.952403, 34.454698], [40.958995, 34.451239], [40.980398, 34.433661], [40.992605, 34.428494]]]}}, {"type": "Feature", "properties": {"name": "Shatt al Arab", "featurecla": "River"}, "geometry": {"type": "MultiLineString", "coordinates": [[[47.468516, 30.968451], [47.477794, 30.951972], [47.53712, 30.871853], [47.619558, 30.784857], [47.643972, 30.773505], [47.650483, 30.768093], [47.666515, 30.759711], [47.71282, 30.751654], [47.72877, 30.743842], [47.736746, 30.732245], [47.74171, 30.718817], [47.746837, 30.690741], [47.749522, 30.606513], [47.75172, 30.595567], [47.755626, 30.585313], [47.761974, 30.576239], [47.77003, 30.570136], [47.779307, 30.566026], [47.801199, 30.559882], [47.811615, 30.555609], [47.821381, 30.549831], [47.830333, 30.542426], [47.837901, 30.534247], [47.855968, 30.506537], [47.874278, 30.487576], [47.897553, 30.478461], [48.118907, 30.450995], [48.130056, 30.447699], [48.140391, 30.442165], [48.157237, 30.426459], [48.170014, 30.406928], [48.178966, 30.385118], [48.187266, 30.34101], [48.191498, 30.33157], [48.199718, 30.324083], [48.210704, 30.319851], [48.222585, 30.318305], [48.23463, 30.318712], [48.271251, 30.324042], [48.283783, 30.323513], [48.295828, 30.320014], [48.305268, 30.313056], [48.325613, 30.283718], [48.357677, 30.252061], [48.396495, 30.221218], [48.403331, 30.212714], [48.408295, 30.202582], [48.410167, 30.191759], [48.407725, 30.181098], [48.400076, 30.172553], [48.390636, 30.164984], [48.382823, 30.156684], [48.380626, 30.145575], [48.382498, 30.138617], [48.395112, 30.115424], [48.415131, 30.095811], [48.420828, 30.085557], [48.423595, 30.083848], [48.441661, 30.034206], [48.443858, 30.021104], [48.452566, 30.001654], [48.457449, 29.995063], [48.463878, 29.989366], [48.477631, 29.979844], [48.492605, 29.971951], [48.53183, 29.961208]]]}}]}