{"type":"FeatureCollection","source":"Natural Earth 10m rivers_lake_centerlines (public domain), https://raw.githubusercontent.com/nvkelso/natural-earth-vector/master/geojson/ne_10m_rivers_lake_centerlines.geojson ; filtered to the Mississippi and the Ohio","features":[{"type":"Feature","properties":{"name":"Mississippi","featurecla":"Lake Centerline"},"geometry":{"type":"MultiLineString","coordinates":[[[-94.506825,47.456407],[-94.507232,47.456407],[-94.507721,47.45657],[-94.521392,47.45543],[-94.544097,47.447577],[-94.569936,47.435248],[-94.596913,47.430935],[-94.624379,47.436062],[-94.637074,47.440009]],[[-94.326487,47.405626],[-94.266347,47.405341],[-94.236073,47.421902],[-94.220041,47.440212],[-94.198354,47.459662],[-94.160024,47.474555],[-94.125844,47.458116],[-94.103749,47.434678],[-94.094106,47.432807]]]}},{"type":"Feature","properties":{"name":"Mississippi","featurecla":"River"},"geometry":{"type":"MultiLineString","coordinates":[[[-94.507721,47.45657],[-94.417307,47.445421],[-94.36913,47.433214],[-94.326487,47.405626]],[[-94.094106,47.432807],[-94.073638,47.430487],[-94.05309,47.426866],[-94.047434,47.413926],[-94.048004,47.395575],[-94.046376,47.3758],[-94.037099,47.360175],[-94.021067,47.347113],[-94.001454,47.338202],[-93.981516,47.334906],[-93.964345,47.328803],[-93.936391,47.303534],[-93.916615,47.300116],[-93.90807,47.304226],[-93.901235,47.311103],[-93.892649,47.317694],[-93.878774,47.320624],[-93.86856,47.318427],[-93.848948,47.309109],[-93.837229,47.306952],[-93.800649,47.315131],[-93.793121,47.314399],[-93.792551,47.306912],[-93.798451,47.297634],[-93.805898,47.289822],[-93.809885,47.286444],[-93.809722,47.277167],[-93.814687,47.255968],[-93.814768,47.232978],[-93.799957,47.218207],[-93.782704,47.219672],[-93.747304,47.240302],[-93.684438,47.256456],[-93.663401,47.259589],[-93.642242,47.251654],[-93.634877,47.259101],[-93.466461,47.195339],[-93.4405,47.178249],[-93.42516,47.152045],[-93.406361,47.127387],[-93.402089,47.118598],[-93.401031,47.106309],[-93.396311,47.085313],[-93.395253,47.070746],[-93.38036,47.054511],[-93.309316,47.025906],[-93.28539,47.012763],[-93.304596,46.969306],[-93.316721,46.949083],[-93.330149,46.933905],[-93.364491,46.906928],[-93.377268,46.890082],[-93.381581,46.868109],[-93.369293,46.832465],[-93.364858,46.805854],[-93.371409,46.793647],[-93.387563,46.786322],[-93.443105,46.73904],[-93.505523,46.712429],[-93.522206,46.700873],[-93.541005,46.692939],[-93.593861,46.690131],[-93.61498,46.683783],[-93.619049,46.678412],[-93.634877,46.649604],[-93.648549,46.634385],[-93.653798,46.624823],[-93.655955,46.611151],[-93.662343,46.595323],[-93.67809,46.577501],[-93.69815,46.562079],[-93.717397,46.553412],[-93.741689,46.551093],[-93.766957,46.553168],[-93.789784,46.558661],[-93.806752,46.566474],[-93.812164,46.572781],[-93.812164,46.577908],[-93.814605,46.582546],[-93.82726,46.587592],[-93.840077,46.588975],[-93.852651,46.58747],[-93.956451,46.553046],[-93.999745,46.551703],[-94.040151,46.57392],[-94.043853,46.570868],[-94.053212,46.566474],[-94.048085,46.554999],[-94.053131,46.549587],[-94.063344,46.545925],[-94.077016,46.537624],[-94.084055,46.535427],[-94.08731,46.532986],[-94.089833,46.528022],[-94.092885,46.515692],[-94.097564,46.509345],[-94.106191,46.492987],[-94.095815,46.467108],[-94.108469,46.450995],[-94.116851,46.448188],[-94.140045,46.446153],[-94.149403,46.443549],[-94.159332,46.435858],[-94.163645,46.428331],[-94.16686,46.4206],[-94.180084,46.404731],[-94.188588,46.38642],[-94.193471,46.378445],[-94.268666,46.323757],[-94.351064,46.284451],[-94.403147,46.237128],[-94.408437,46.228949],[-94.410064,46.217637],[-94.406321,46.206326],[-94.391591,46.185818],[-94.388336,46.173285],[-94.388336,46.131944],[-94.383697,46.124945],[-94.36205,46.114203],[-94.354848,46.107774],[-94.351552,46.090196],[-94.35558,46.074164],[-94.36852,46.046332],[-94.370758,46.030463],[-94.371816,45.993923],[-94.375356,45.978054],[-94.387441,45.956732],[-94.396352,45.945014],[-94.39802,45.932685],[-94.388336,45.909735],[-94.372222,45.885321],[-94.36852,45.875067],[-94.367828,45.866645],[-94.369496,45.849066],[-94.36852,45.840888],[-94.361399,45.826199],[-94.351308,45.815009],[-94.311106,45.789496],[-94.299306,45.779975],[-94.279775,45.758897],[-94.269399,45.750841],[-94.243031,45.734971],[-94.232004,45.724189],[-94.225738,45.710273],[-94.221588,45.695624],[-94.213775,45.683295],[-94.196604,45.676378],[-94.208608,45.661566],[-94.217681,45.638495],[-94.217152,45.617377],[-94.200307,45.6081],[-94.188222,45.599189],[-94.163238,45.555447],[-94.151845,45.529161],[-94.146474,45.508857],[-94.141957,45.498236],[-94.118398,45.473456],[-94.114613,45.467231],[-94.105336,45.456],[-94.011342,45.404486],[-93.990712,45.397813],[-93.94933,45.393419],[-93.942209,45.391425],[-93.935862,45.388617],[-93.813588,45.316433],[-93.787953,45.307929],[-93.597279,45.299628],[-93.588857,45.296739],[-93.581654,45.289984],[-93.570302,45.275458],[-93.562367,45.268622],[-93.514231,45.241319],[-93.493642,45.23253],[-93.471099,45.226345],[-93.446767,45.223944],[-93.437327,45.22016],[-93.39566,45.186469],[-93.361724,45.175482],[-93.319569,45.14879],[-93.295969,45.114691],[-93.288238,45.105902],[-93.292836,45.038926],[-93.285146,45.021755],[-93.270172,44.998725],[-93.252024,44.978624],[-93.234853,44.970038],[-93.224192,44.960639],[-93.214345,44.916124],[-93.203481,44.90115],[-93.17398,44.900662],[-93.118764,44.939276],[-93.090484,44.94953],[-93.080312,44.942979],[-93.070465,44.928331],[-93.063059,44.913153],[-93.060129,44.904853],[-93.054677,44.898017],[-93.042714,44.887763],[-93.030751,44.874335],[-93.025299,44.857978],[-93.021962,44.821845],[-93.010121,44.800971],[-92.987131,44.790473],[-92.896148,44.782172],[-92.881947,44.778266],[-92.877065,44.773464],[-92.873158,44.766547],[-92.867543,44.760443],[-92.857411,44.757758],[-92.819895,44.757758],[-92.79308,44.740505],[-92.731435,44.711493],[-92.661204,44.660224],[-92.643422,44.651557],[-92.637278,44.643012],[-92.632476,44.633612],[-92.628082,44.627468],[-92.584788,44.607856],[-92.429107,44.589179],[-92.39387,44.579535],[-92.359853,44.55976],[-92.331125,44.533026],[-92.305287,44.490058],[-92.296864,44.478949],[-92.286204,44.470567],[-92.272776,44.465766],[-92.156158,44.451361],[-92.102691,44.436835],[-91.950185,44.335639],[-91.912262,44.288886],[-91.837026,44.181749],[-91.817209,44.162543],[-91.778472,44.149482],[-91.662709,44.073188],[-91.650258,44.068223],[-91.637766,44.065619],[-91.541086,44.065497],[-91.535308,44.063747],[-91.478627,44.029486],[-91.471181,44.026475],[-91.462717,44.024482],[-91.426015,44.022406],[-91.414052,44.018093],[-91.407623,44.013251],[-91.403554,44.007636],[-91.40099,44.001044],[-91.399159,43.993354],[-91.391998,43.979438],[-91.368886,43.957872],[-91.361073,43.94477],[-91.318349,43.932929],[-91.305084,43.926785],[-91.295155,43.918891],[-91.288564,43.909003],[-91.284332,43.89765],[-91.279612,43.873481],[-91.278879,43.850531],[-91.281321,43.821234],[-91.28067,43.812445],[-91.278635,43.804023],[-91.274648,43.795518],[-91.269276,43.78852],[-91.255605,43.776435],[-91.249338,43.768866],[-91.245839,43.759792],[-91.242909,43.740098],[-91.242787,43.721218],[-91.254872,43.666856],[-91.254628,43.657742],[-91.247141,43.631171],[-91.246693,43.620632],[-91.250844,43.589219],[-91.250111,43.575954],[-91.244211,43.550076],[-91.242909,43.536892],[-91.244456,43.524278],[-91.250559,43.499538],[-91.252024,43.486884],[-91.251088,43.474392],[-91.248036,43.462714],[-91.243031,43.45185],[-91.229319,43.431423],[-91.224273,43.421454],[-91.221059,43.410753],[-91.216624,43.383368],[-91.208892,43.372829],[-91.197174,43.365912],[-91.111155,43.339952],[-91.086659,43.317247],[-91.08495,43.279975],[-91.103586,43.249213],[-91.156606,43.195258],[-91.167877,43.160346],[-91.162465,43.090277],[-91.154775,43.056423],[-91.154286,43.019721],[-91.152415,43.007595],[-91.147776,42.996283],[-91.146555,42.950263],[-91.141591,42.928168],[-91.130686,42.9112],[-91.102162,42.884874],[-91.092356,42.870876],[-91.086293,42.852851],[-91.083241,42.810492],[-91.079661,42.791938],[-91.045562,42.742011],[-91.03307,42.729112],[-91.01061,42.716335],[-90.966664,42.701524],[-90.795806,42.676785],[-90.750111,42.663764],[-90.726633,42.661078],[-90.703114,42.655219],[-90.687408,42.640326],[-90.667958,42.599636],[-90.659779,42.588202],[-90.634633,42.55976],[-90.626373,42.544379],[-90.628774,42.533026],[-90.654286,42.489814],[-90.642079,42.475613],[-90.611562,42.462999],[-90.596303,42.451931],[-90.581207,42.43769],[-90.549224,42.417182],[-90.463368,42.375841],[-90.432281,42.352484],[-90.414703,42.318427],[-90.414703,42.325263],[-90.412221,42.268337],[-90.403228,42.245307],[-90.370473,42.230536],[-90.349029,42.207139],[-90.335561,42.201728],[-90.322092,42.19949],[-90.236562,42.160834],[-90.226226,42.153347],[-90.201283,42.130805],[-90.191884,42.126044],[-90.176584,42.123603],[-90.169789,42.116319],[-90.16808,42.1046],[-90.168324,42.088813],[-90.165028,42.075141],[-90.14037,42.030463],[-90.144154,42.018581],[-90.149485,41.976264],[-90.167104,41.94123],[-90.17455,41.879665],[-90.188629,41.834662],[-90.201283,41.813503],[-90.218861,41.804511],[-90.235178,41.799628],[-90.27717,41.774359],[-90.291168,41.763536],[-90.305084,41.748481],[-90.318349,41.72838],[-90.328277,41.706163],[-90.332143,41.684434],[-90.346547,41.66474],[-90.344797,41.660224],[-90.341054,41.655829],[-90.338979,41.64997],[-90.339345,41.626288],[-90.341461,41.615831],[-90.346425,41.605292],[-90.361684,41.593207],[-90.405588,41.574246],[-90.414703,41.567735],[-90.422434,41.5539],[-90.441029,41.54328],[-90.483022,41.530829],[-90.582346,41.517157],[-90.603342,41.510362],[-90.641428,41.47602],[-90.661733,41.461941],[-90.704579,41.451117],[-90.991567,41.433539],[-91.031077,41.41352],[-91.05484,41.382839],[-91.075592,41.343329],[-91.091176,41.299669],[-91.099355,41.256456],[-91.09911,41.235907],[-91.094106,41.210801],[-91.082428,41.189724],[-91.062082,41.180732],[-91.047841,41.17654],[-90.997548,41.146593],[-90.968739,41.115994],[-90.95165,41.075385],[-90.945383,41.029161],[-90.949086,40.982123],[-90.966705,40.946153],[-91.065826,40.858588],[-91.083485,40.838975],[-91.093617,40.823554],[-91.098256,40.807685],[-91.101633,40.763699],[-91.107777,40.741767],[-91.127309,40.701606],[-91.153147,40.67239],[-91.187896,40.653144],[-91.227447,40.642686],[-91.267568,40.639472],[-91.298329,40.633124],[-91.343088,40.617703],[-91.383412,40.598578],[-91.40099,40.581163],[-91.403147,40.574286],[-91.412506,40.563666],[-91.414662,40.553819],[-91.410959,40.545274],[-91.383901,40.526231],[-91.374827,40.509874],[-91.374176,40.492133],[-91.380483,40.461371],[-91.380523,40.444281],[-91.375111,40.417792],[-91.373687,40.403022],[-91.38268,40.39289],[-91.441965,40.379462],[-91.473012,40.358018],[-91.496205,40.3133],[-91.511342,40.262152],[-91.5183,40.221137],[-91.519032,40.174872],[-91.492584,40.009467],[-91.487213,39.99433],[-91.473622,39.978217],[-91.456654,39.961982],[-91.450592,39.954942],[-91.446156,39.947821],[-91.443105,39.940009],[-91.441477,39.930935],[-91.441965,39.90644],[-91.450307,39.877143],[-91.449371,39.865546],[-91.445139,39.858751],[-91.431752,39.846991],[-91.425201,39.833808],[-91.397857,39.813666],[-91.39151,39.803412],[-91.389312,39.792833],[-91.387318,39.769314],[-91.375071,39.735622],[-91.355214,39.710761],[-91.1044,39.533026],[-91.088694,39.518012],[-91.076772,39.499294],[-91.072011,39.477891],[-91.065826,39.464179],[-91.051015,39.452338],[-90.819651,39.320014],[-90.797475,39.303168],[-90.774078,39.278917],[-90.74828,39.24197],[-90.736806,39.220282],[-90.730051,39.200751],[-90.728912,39.187283],[-90.730702,39.159613],[-90.730051,39.146104],[-90.724517,39.133816],[-90.706614,39.112128],[-90.702748,39.101142],[-90.706858,39.090196],[-90.71467,39.078681],[-90.718902,39.066352],[-90.712636,39.053046],[-90.704742,39.040839],[-90.699371,39.024359],[-90.69815,39.007758],[-90.702748,38.995307],[-90.657582,38.920966],[-90.626617,38.890326],[-90.585439,38.877997],[-90.542063,38.893907],[-90.479115,38.958808],[-90.428375,38.967353],[-90.409169,38.961371],[-90.374908,38.943712],[-90.356353,38.94005],[-90.332834,38.938056],[-90.282216,38.926459],[-90.183665,38.882636],[-90.143666,38.856757],[-90.127309,38.830186],[-90.132192,38.818671]],[[-95.179921,47.216417],[-95.246938,47.294786],[-95.256907,47.315131],[-95.258168,47.331],[-95.255198,47.343207],[-95.247467,47.360378],[-95.236236,47.377956],[-95.222076,47.39529],[-95.187489,47.426866],[-95.168324,47.439887],[-95.148874,47.450222],[-95.133412,47.455146],[-95.115631,47.456366],[-95.089223,47.453925],[-95.066233,47.450263],[-95.025299,47.443915],[-95.004954,47.443061],[-94.985911,47.445176],[-94.967763,47.449897],[-94.943918,47.458848],[-94.889801,47.469794],[-94.865631,47.481513],[-94.84675,47.496039],[-94.834625,47.499376],[-94.761545,47.487657],[-94.74767,47.47724],[-94.724192,47.450954],[-94.708567,47.442654],[-94.689849,47.438666],[-94.637074,47.440009]]]}},{"type":"Feature","properties":{"name":"Mississippi","featurecla":"River"},"geometry":{"type":"MultiLineString","coordinates":[[[-90.132192,38.818671],[-90.134836,38.812445],[-90.151519,38.787299],[-90.170522,38.764838],[-90.185048,38.755072],[-90.198069,38.744167],[-90.200673,38.71955],[-90.195627,38.679389],[-90.196604,38.638048],[-90.213612,38.606716],[-90.263905,38.542792],[-90.314849,38.431464],[-90.363026,38.369167],[-90.378041,38.33751],[-90.382069,38.300401],[-90.373158,38.254218],[-90.367665,38.238715],[-90.361684,38.226508],[-90.354807,38.216335],[-90.346425,38.207058],[-90.291168,38.169135],[-90.28482,38.15998],[-90.256663,38.136827],[-90.250234,38.127875],[-90.242828,38.11282],[-90.225413,38.100857],[-90.18814,38.083523],[-90.162221,38.062445],[-90.138092,38.037421],[-90.110911,38.016547],[-90.075551,38.007758],[-90.020619,37.970242],[-90.005116,37.962429],[-89.968088,37.962958],[-89.955434,37.960028],[-89.922841,37.952501],[-89.888824,37.931708],[-89.831899,37.884223],[-89.808217,37.871609],[-89.746775,37.850653],[-89.722035,37.837104],[-89.697621,37.80919],[-89.669097,37.75434],[-89.646881,37.733466],[-89.549672,37.697577],[-89.523427,37.678819],[-89.530873,37.666571],[-89.527577,37.650214],[-89.520497,37.631863],[-89.516591,37.613959],[-89.519195,37.597195],[-89.524241,37.580186],[-89.527089,37.561957],[-89.523427,37.541612],[-89.502309,37.506944],[-89.474924,37.474799],[-89.451283,37.440253],[-89.441518,37.398261],[-89.45873,37.362494],[-89.493804,37.335028],[-89.523183,37.306586],[-89.523427,37.26789],[-89.518137,37.263943],[-89.49828,37.258002],[-89.489858,37.254259],[-89.473866,37.24376],[-89.475657,37.23074],[-89.472483,37.213935],[-89.464223,37.197699],[-89.441518,37.164862],[-89.401601,37.119981],[-89.387034,37.091335],[-89.393666,37.062527],[-89.377431,37.047227],[-89.32726,37.014106],[-89.286936,37.000434],[-89.275258,37.000312],[-89.270172,37.011013],[-89.273061,37.025987],[-89.2801,37.034247],[-89.289174,37.04031],[-89.298085,37.048855],[-89.308949,37.071072],[-89.302358,37.080919],[-89.284088,37.083279],[-89.260243,37.082953],[-89.253774,37.07807],[-89.249582,37.054145],[-89.246246,37.045437],[-89.236887,37.03852],[-89.216542,37.028266],[-89.20873,37.021511],[-89.203603,37.010688],[-89.201243,36.999701],[-89.197499,36.989366],[-89.188222,36.980536],[-89.177113,36.978298],[-89.164703,36.98074],[-89.152943,36.984687],[-89.143544,36.986762],[-89.12385,36.97956],[-89.119008,36.961859],[-89.125559,36.918484],[-89.124135,36.886664],[-89.125559,36.876899],[-89.130849,36.870225],[-89.14037,36.861518],[-89.149403,36.851101],[-89.153472,36.839382],[-89.14977,36.818305],[-89.134633,36.78323],[-89.132965,36.76081],[-89.140736,36.734442],[-89.180776,36.665229],[-89.205434,36.607489],[-89.22643,36.58043],[-89.253407,36.569037],[-89.284657,36.577501],[-89.310943,36.59748],[-89.334869,36.620429],[-89.358957,36.637885],[-89.370229,36.632921],[-89.376454,36.627387],[-89.38622,36.609971],[-89.400502,36.572455],[-89.403391,36.557156],[-89.419179,36.510362],[-89.427195,36.493272],[-89.449778,36.470771],[-89.466176,36.457953],[-89.479075,36.452338],[-89.505198,36.458116],[-89.506947,36.472846],[-89.497426,36.492865],[-89.489858,36.514431],[-89.502797,36.554307],[-89.537017,36.567816],[-89.569732,36.556342],[-89.578033,36.521267],[-89.569203,36.508734],[-89.555776,36.496121],[-89.547597,36.481472],[-89.554433,36.462917],[-89.55602,36.447374],[-89.534047,36.406073],[-89.530873,36.383409],[-89.541493,36.361599],[-89.559885,36.35163],[-89.583363,36.349066],[-89.609364,36.349311],[-89.628529,36.341376],[-89.626332,36.323065],[-89.611399,36.302558],[-89.592275,36.287869],[-89.567291,36.281317],[-89.557444,36.274685],[-89.561269,36.263699],[-89.571401,36.25727],[-89.583567,36.254665],[-89.676625,36.251776],[-89.694732,36.246894],[-89.64037,36.182237],[-89.613922,36.141628],[-89.623036,36.123358],[-89.638783,36.120144],[-89.657948,36.112128],[-89.674184,36.102118],[-89.68106,36.092597],[-89.685292,36.076199],[-89.71581,36.034613],[-89.725657,35.993232],[-89.707102,35.967637],[-89.680776,35.945746],[-89.667388,35.915107],[-89.674143,35.896186],[-89.689565,35.899522],[-89.718902,35.918524],[-89.740834,35.916205],[-89.759633,35.908881],[-89.774403,35.896104],[-89.784088,35.87755],[-89.757883,35.867296],[-89.731191,35.851671],[-89.722239,35.83336],[-89.785064,35.790798],[-89.937978,35.736192],[-89.952016,35.722927],[-89.952992,35.705024],[-89.938059,35.681749],[-89.909983,35.652045],[-89.910146,35.638983],[-89.92809,35.623114],[-89.944895,35.611843],[-89.951405,35.602484],[-89.947133,35.590766],[-89.931508,35.572211],[-89.91804,35.547919],[-89.928334,35.535427],[-89.951324,35.530137],[-89.975901,35.527452],[-90.000111,35.521796],[-90.012441,35.511542],[-90.016916,35.494656],[-90.017486,35.469184],[-90.022369,35.452663],[-90.034495,35.436306],[-90.049916,35.421739],[-90.103179,35.385443],[-90.115346,35.369493],[-90.119862,35.346259],[-90.118479,35.300605],[-90.11441,35.280463],[-90.094797,35.230902],[-90.084706,35.18891],[-90.085439,35.148261],[-90.106272,35.123399],[-90.126576,35.124579],[-90.15392,35.130235],[-90.177887,35.129828],[-90.18814,35.112616],[-90.190338,35.093044],[-90.196889,35.075792],[-90.20759,35.060736],[-90.22232,35.047716],[-90.259145,35.030626],[-90.282786,35.022976],[-90.301747,35.019802],[-90.312815,35.012478],[-90.30134,34.995632],[-90.270741,34.965155],[-90.271881,34.92296],[-90.305531,34.888943],[-90.352447,34.86404],[-90.463979,34.827826],[-90.475575,34.815009],[-90.471262,34.797634],[-90.45995,34.777696],[-90.454823,34.759223],[-90.46935,34.746039],[-90.478342,34.737494],[-90.499827,34.732042],[-90.522328,34.732856],[-90.541371,34.742987],[-90.553822,34.739854],[-90.568023,34.719794],[-90.585439,34.684597],[-90.593984,34.642279],[-90.576161,34.573432],[-90.586578,34.488878],[-90.586171,34.454291],[-90.594065,34.424994],[-90.626373,34.396023],[-90.662953,34.379421],[-90.685862,34.37226],[-90.727651,34.368191],[-90.738922,34.369005],[-90.74706,34.372748],[-90.759429,34.380561],[-90.764027,34.375352],[-90.764231,34.366278],[-90.761098,34.352118]],[[-90.761098,34.352118],[-90.763539,34.362494]],[[-90.761098,34.352118],[-90.752065,34.333319],[-90.750559,34.320909],[-90.753977,34.312812],[-90.767812,34.294053],[-90.770985,34.283962],[-90.775299,34.279649],[-90.785146,34.281358],[-90.801381,34.28738],[-90.814687,34.28738],[-90.821278,34.28559],[-90.825673,34.279568],[-90.864369,34.206163],[-90.877105,34.198025],[-90.893056,34.192939],[-90.942454,34.167548],[-90.955963,34.15705],[-90.955068,34.12877],[-90.882558,34.099392],[-90.880238,34.060818],[-90.893056,34.043077],[-90.909332,34.035224],[-90.929067,34.033271],[-90.952545,34.033515],[-90.97525,34.030341],[-91.031077,34.006171],[-91.084788,33.996609],[-91.093129,33.989447],[-91.089182,33.975653],[-91.079172,33.968817],[-91.065907,33.964423],[-91.052195,33.957831],[-91.035756,33.930447],[-91.050404,33.906114],[-91.069325,33.883572],[-91.0631,33.849433],[-91.051666,33.83336],[-91.045522,33.814399],[-91.058339,33.79328],[-91.06843,33.789578],[-91.095326,33.78852],[-91.106801,33.786444],[-91.116526,33.780382],[-91.137603,33.762803],[-91.144358,33.759141],[-91.153188,33.752021],[-91.192454,33.707953],[-91.210683,33.696885],[-91.226064,33.689805],[-91.228831,33.680691],[-91.209218,33.663601],[-91.167714,33.646552],[-91.151763,33.633328],[-91.147776,33.608344],[-91.156565,33.587429],[-91.173818,33.57746],[-91.195953,33.574327],[-91.219716,33.574246],[-91.235504,33.566759],[-91.231068,33.55032],[-91.215891,33.533881],[-91.199574,33.526435],[-91.180898,33.520697],[-91.161041,33.507107],[-91.127309,33.478054],[-91.126291,33.460028],[-91.125356,33.430935],[-91.128774,33.401475],[-91.134104,33.382392],[-91.171457,33.341376],[-91.18224,33.319932],[-91.168202,33.300482],[-91.157379,33.298774],[-91.126332,33.28913],[-91.112945,33.280056],[-91.107655,33.267768],[-91.106801,33.217882],[-91.09557,33.184638],[-91.09317,33.167344],[-91.099355,33.149685],[-91.112294,33.143093],[-91.133209,33.138007],[-91.152821,33.130927],[-91.161448,33.118598],[-91.168202,32.981472],[-91.162709,32.971706],[-91.149281,32.964219],[-91.132436,32.95954],[-91.116689,32.957831],[-91.103912,32.953559],[-91.091379,32.943549],[-91.072011,32.923122],[-91.081899,32.905829],[-91.096059,32.888007],[-91.111236,32.874091],[-91.123891,32.868476],[-91.133453,32.858466],[-91.149973,32.81037],[-91.157379,32.770779],[-91.154652,32.755805],[-91.142242,32.747504],[-91.092885,32.740505],[-91.075022,32.728461],[-91.070302,32.710883],[-91.086293,32.689765],[-91.10497,32.685492],[-91.132436,32.684597],[-91.157379,32.680284],[-91.168202,32.666124],[-91.166412,32.644395],[-91.161122,32.625312],[-91.152496,32.608832],[-91.14094,32.594753],[-91.130767,32.587592],[-91.106842,32.574571],[-91.099355,32.56684],[-91.097239,32.55504],[-91.100168,32.543077],[-91.104563,32.531928],[-91.106801,32.522488],[-91.108876,32.481391],[-91.105295,32.465033],[-91.093129,32.450751],[-91.059885,32.433783],[-91.029042,32.422797],[-91.006337,32.404242],[-90.997548,32.364529],[-90.99059,32.357123],[-90.974192,32.351671],[-90.939198,32.347113],[-90.916615,32.339789],[-90.909901,32.324246],[-90.913319,32.310004],[-90.921213,32.306749],[-90.921213,32.299913],[-90.966664,32.261542],[-90.998118,32.197862],[-91.032338,32.147488],[-91.086293,32.149115],[-91.09557,32.141221],[-91.099233,32.130927],[-91.099721,32.121039],[-91.099355,32.114325],[-91.069,32.084662],[-91.069244,32.048122],[-91.091542,32.014024],[-91.127309,31.991482],[-91.158518,31.983222],[-91.168202,31.97781],[-91.176137,31.96894],[-91.185902,31.94831],[-91.192454,31.939968],[-91.238271,31.894314],[-91.257639,31.881619],[-91.276723,31.875515],[-91.318837,31.867458],[-91.33609,31.857978],[-91.351471,31.840644],[-91.360748,31.823188],[-91.373687,31.785997],[-91.404286,31.738308],[-91.408437,31.720811],[-91.409983,31.701117],[-91.428944,31.614691],[-91.429596,31.590766],[-91.434641,31.580024],[-91.43578,31.573106],[-91.505971,31.529893],[-91.529042,31.500556],[-91.524526,31.457058],[-91.520172,31.449571],[-91.510081,31.438096],[-91.497426,31.41706],[-91.495717,31.4112],[-91.497182,31.391547],[-91.499379,31.382676],[-91.508697,31.373603],[-91.522369,31.308905],[-91.52892,31.293402],[-91.541127,31.282416],[-91.562367,31.278266],[-91.609527,31.279893],[-91.633046,31.278184],[-91.648061,31.27143],[-91.649648,31.255316],[-91.639312,31.235175],[-91.623687,31.217882],[-91.609853,31.210639],[-91.604726,31.20543],[-91.606557,31.194159],[-91.610829,31.183417],[-91.613271,31.179551],[-91.615875,31.168728],[-91.626454,31.151394],[-91.627553,31.14171],[-91.615875,31.113715],[-91.585317,31.081855],[-91.579172,31.056016],[-91.661692,30.997097],[-91.652089,30.948269],[-91.626332,30.93419],[-91.589263,30.931098],[-91.545644,30.915147],[-91.529286,30.89997],[-91.52123,30.882351],[-91.518544,30.861599],[-91.5183,30.836697],[-91.525217,30.81741],[-91.541819,30.805976],[-91.561879,30.796942],[-91.579172,30.784857],[-91.582265,30.75727],[-91.54601,30.742621],[-91.495473,30.73725],[-91.455637,30.737657],[-91.437571,30.741726],[-91.401763,30.755235],[-91.383901,30.758124],[-91.369456,30.752021],[-91.359771,30.737169],[-91.346344,30.702908],[-91.335276,30.685655],[-91.298573,30.648261],[-91.267445,30.588162],[-91.254221,30.579372],[-91.244862,30.568712],[-91.256825,30.545233],[-91.281809,30.511094],[-91.223622,30.520209],[-91.209218,30.51793],[-91.193267,30.488308],[-91.192128,30.444525],[-91.203765,30.404853],[-91.226552,30.387559],[-91.23176,30.385077],[-91.237416,30.378933],[-91.242055,30.371161],[-91.243967,30.36404],[-91.240712,30.352403],[-91.232533,30.350124],[-91.212961,30.354071],[-91.189605,30.354071],[-91.17101,30.35163],[-91.156972,30.343533],[-91.147776,30.326117],[-91.171457,30.31977],[-91.194651,30.317979],[-91.213206,30.311591],[-91.222808,30.291368],[-91.160715,30.289333],[-91.144358,30.28144],[-91.136138,30.276068],[-91.116811,30.267279],[-91.112945,30.261298],[-91.117787,30.251654],[-91.140452,30.236355],[-91.147776,30.229926],[-91.15095,30.223985],[-91.154286,30.214871],[-91.154368,30.204779],[-91.147776,30.195828],[-91.137074,30.193305],[-91.127919,30.198513],[-91.119252,30.205837],[-91.109853,30.209418],[-91.065826,30.213162],[-91.045522,30.209784],[-91.02481,30.195828],[-91.013539,30.179267],[-91.014801,30.166612],[-91.021108,30.153998],[-91.02481,30.137478],[-91.01301,30.126166],[-90.986928,30.121405],[-90.949086,30.120673],[-90.941803,30.125027],[-90.938954,30.130479],[-90.934275,30.132636],[-90.921213,30.126899],[-90.912709,30.118516],[-90.898793,30.093695],[-90.891103,30.083116],[-90.882802,30.078152],[-90.864613,30.07449],[-90.856313,30.069444],[-90.849843,30.060981],[-90.839263,30.031928],[-90.825266,30.011501],[-90.812611,30.008612],[-90.797027,30.013861],[-90.774078,30.017646],[-90.751943,30.0185],[-90.735097,30.021511],[-90.71996,30.027777],[-90.702748,30.038153],[-90.688222,30.049872],[-90.678293,30.055976],[-90.667958,30.058661],[-90.655629,30.056423],[-90.634999,30.047065],[-90.62328,30.044989],[-90.613922,30.048285],[-90.59496,30.062812],[-90.589182,30.066026],[-90.576772,30.065131],[-90.544423,30.058661],[-90.500722,30.059516],[-90.482818,30.055487],[-90.475575,30.041571],[-90.473256,30.018663],[-90.465566,30.009467],[-90.428375,30.004014],[-90.408274,29.996772],[-90.396962,29.986192],[-90.388539,29.973456],[-90.376861,29.959581],[-90.353627,29.948106],[-90.32787,29.948269],[-90.303334,29.954901],[-90.261627,29.971544],[-90.246002,29.972032],[-90.231435,29.96365],[-90.212392,29.945665],[-90.194203,29.937852],[-90.159169,29.951768],[-90.14037,29.948798],[-90.132192,29.940456],[-90.128407,29.93244],[-90.122141,29.925889],[-90.106272,29.922065],[-90.096262,29.923651],[-90.068349,29.935126],[-90.064524,29.938422],[-90.061676,29.945665],[-90.057037,29.952948],[-90.047922,29.956163],[-90.02477,29.954169],[-89.959218,29.937079],[-89.937367,29.926622],[-89.92809,29.911566],[-89.925893,29.905829],[-89.916005,29.892117],[-89.913808,29.883612],[-89.917836,29.875515],[-89.927358,29.875108],[-89.948598,29.87991],[-89.952626,29.881415],[-89.957102,29.884833],[-89.962392,29.887641],[-89.969106,29.887315],[-89.974273,29.884223],[-89.974355,29.881171],[-89.973541,29.877794],[-89.99352,29.846137],[-89.996409,29.842597],[-90.002187,29.822537],[-90.024037,29.786444],[-90.023671,29.764431],[-90.009429,29.742377],[-89.970815,29.704372],[-89.9558,29.656277],[-89.938303,29.644802],[-89.893951,29.634101],[-89.860829,29.621121],[-89.789947,29.579291],[-89.70523,29.500596],[-89.689361,29.490058],[-89.609975,29.463935],[-89.603749,29.45893],[-89.59911,29.449083],[-89.605336,29.427314],[-89.60733,29.414089],[-89.602528,29.408149],[-89.507395,29.360053],[-89.488922,29.354926],[-89.465077,29.352891],[-89.426503,29.354804],[-89.408315,29.349433],[-89.38622,29.333075],[-89.271962,29.201931],[-89.264516,29.186794],[-89.260976,29.171169],[-89.260976,29.155137],[-89.281239,29.100165],[-89.400502,28.955675],[-89.413564,28.928331],[-89.413564,28.935167]],[[-89.270172,29.202094],[-89.257192,29.234442],[-89.188222,29.318793]],[[-89.257151,29.154893],[-89.196767,29.161322],[-89.092926,29.18948],[-89.030588,29.195868]]]}},{"type":"Feature","properties":{"name":"Ohio","featurecla":"River"},"geometry":{"type":"MultiLineString","coordinates":[[[-79.990875,40.447699],[-80.000844,40.442816],[-80.012318,40.44127],[-80.021718,40.443793],[-80.025624,40.450792],[-80.033559,40.459174],[-80.080881,40.496161],[-80.120717,40.515204],[-80.162831,40.528591],[-80.201731,40.54621],[-80.231679,40.57807],[-80.239898,40.597968],[-80.250152,40.648139],[-80.251576,40.670233],[-80.262359,40.686306],[-80.285634,40.699286],[-80.307525,40.705593],[-80.31428,40.701606],[-80.34142,40.691718],[-80.385569,40.65998],[-80.428863,40.65001],[-80.45401,40.636054],[-80.464467,40.632636],[-80.479237,40.635443],[-80.502065,40.647284],[-80.519114,40.646918],[-80.535878,40.643378],[-80.580556,40.619005],[-80.597401,40.626532],[-80.62267,40.625922],[-80.648346,40.619249],[-80.666493,40.608751],[-80.676991,40.58869],[-80.669586,40.571479],[-80.636383,40.537055],[-80.614166,40.503607],[-80.605295,40.485867],[-80.601633,40.4713],[-80.60676,40.448798],[-80.627187,40.409613],[-80.628977,40.386298],[-80.62621,40.38642],[-80.61974,40.385362],[-80.612782,40.383002],[-80.608469,40.379462],[-80.607655,40.37462],[-80.608998,40.363837],[-80.608469,40.358954],[-80.601959,40.336534],[-80.600657,40.32331],[-80.605051,40.31741],[-80.614695,40.286322],[-80.620269,40.2803],[-80.64745,40.26321],[-80.65685,40.255316],[-80.677968,40.216132],[-80.687164,40.193061],[-80.694447,40.157416],[-80.703033,40.13935],[-80.724517,40.104519],[-80.735463,40.079901],[-80.739166,40.060736],[-80.738189,40.019477],[-80.741444,39.99669],[-80.749013,39.982774],[-80.758046,39.970771],[-80.765492,39.95364],[-80.763987,39.947048],[-80.759999,39.938666],[-80.758778,39.929307],[-80.765492,39.919501],[-80.778147,39.918158],[-80.791493,39.923896],[-80.802113,39.924872],[-80.806467,39.909613],[-80.8037,39.899237],[-80.798207,39.887722],[-80.794423,39.876817],[-80.796864,39.868598],[-80.815541,39.850775],[-80.821889,39.842312],[-80.828196,39.830756],[-80.831654,39.820421],[-80.835805,39.800645],[-80.841176,39.790351],[-80.862945,39.779486],[-80.871165,39.771104],[-80.865387,39.759101],[-80.849517,39.745185],[-80.839101,39.733588],[-80.835764,39.720282],[-80.841176,39.701036],[-80.857249,39.690945],[-80.861684,39.686713],[-80.862701,39.682318],[-80.861318,39.671088],[-80.861684,39.666287],[-80.873443,39.638943],[-80.875356,39.62873],[-80.944244,39.597968],[-81.055409,39.529975],[-81.087636,39.501776],[-81.110748,39.468858],[-81.125885,39.45364],[-81.165679,39.442206],[-81.183461,39.430487],[-81.211781,39.406195],[-81.22704,39.398383],[-81.247182,39.391669],[-81.269114,39.386908],[-81.289947,39.385077],[-81.310292,39.37877],[-81.345082,39.35338],[-81.368804,39.350938],[-81.388539,39.362128],[-81.401682,39.380805],[-81.411244,39.398383],[-81.420644,39.406195],[-81.463246,39.40644],[-81.478993,39.400458],[-81.554351,39.344102],[-81.562367,39.326361],[-81.569488,39.287624],[-81.581125,39.275214],[-81.589019,39.280585],[-81.595041,39.282294],[-81.600982,39.280585],[-81.608998,39.275214],[-81.615834,39.28266],[-81.637603,39.276068],[-81.662343,39.275499],[-81.682525,39.27086],[-81.69815,39.237006],[-81.746205,39.193305],[-81.753855,39.177598],[-81.755238,39.165147],[-81.752349,39.128119],[-81.754709,39.105251],[-81.762563,39.096015],[-81.812652,39.080024],[-81.818593,39.079657],[-81.819,39.076117],[-81.814443,39.062934],[-81.810618,39.05683],[-81.803944,39.050116],[-81.796498,39.044745],[-81.790273,39.042507],[-81.777211,39.034857],[-81.77538,39.017117],[-81.780344,38.981024],[-81.773874,38.964423],[-81.764638,38.948757],[-81.764068,38.93712],[-81.783762,38.932644],[-81.794667,38.936062],[-81.812245,38.950873],[-81.824371,38.954372],[-81.834869,38.949286],[-81.840932,38.937445],[-81.848622,38.913398],[-81.860666,38.899237],[-81.880116,38.883083],[-81.901763,38.874132],[-81.920562,38.8817],[-81.927724,38.892646],[-81.925852,38.897528],[-81.920522,38.903144],[-81.91747,38.916531],[-81.915273,38.919298],[-81.910308,38.921007],[-81.905426,38.923692],[-81.903188,38.929511],[-81.904286,38.936225],[-81.906606,38.941596],[-81.910024,38.946845],[-81.914906,38.962714],[-81.924143,38.978461],[-81.937571,38.990505],[-81.969065,39.000759],[-81.984446,39.01199],[-82.003082,39.021593],[-82.026723,39.021999],[-82.058461,39.003119],[-82.092275,38.968533],[-82.120839,38.929877],[-82.136586,38.899115],[-82.143422,38.858181],[-82.148346,38.848904],[-82.161285,38.831326],[-82.172922,38.808173],[-82.191884,38.797919],[-82.208852,38.785915],[-82.211741,38.762519],[-82.204457,38.745307],[-82.195383,38.731635],[-82.187611,38.715196],[-82.184397,38.689968],[-82.190785,38.675645],[-82.192535,38.665391],[-82.183258,38.648017],[-82.179189,38.635321],[-82.176869,38.621772],[-82.177561,38.61168],[-82.19286,38.595242],[-82.21524,38.591905],[-82.263254,38.597439],[-82.277211,38.588202],[-82.288319,38.566596],[-82.309641,38.478624],[-82.317047,38.460883],[-82.331858,38.443468],[-82.34968,38.437852],[-82.424631,38.432929],[-82.509145,38.409044],[-82.552805,38.405463],[-82.589101,38.418728],[-82.599599,38.43122],[-82.616038,38.463446],[-82.626332,38.477647],[-82.698313,38.535346],[-82.736724,38.554389],[-82.783274,38.567165],[-82.826731,38.586371],[-82.855946,38.624783],[-82.880198,38.690985],[-82.88329,38.710395],[-82.883168,38.730292],[-82.886464,38.744737],[-82.898346,38.751532],[-82.924224,38.748318],[-82.985097,38.723985],[-83.010569,38.720974],[-83.031117,38.715766],[-83.046986,38.703803],[-83.060862,38.689968],[-83.075063,38.679389],[-83.10204,38.671332],[-83.109853,38.666327],[-83.115346,38.658759],[-83.125803,38.637763],[-83.133697,38.627875],[-83.151682,38.618842],[-83.172719,38.618028],[-83.218455,38.624783],[-83.241933,38.623236],[-83.256947,38.615912],[-83.269154,38.607978],[-83.305165,38.601386],[-83.312856,38.603949],[-83.325185,38.614814],[-83.34911,38.645697],[-83.356272,38.652655],[-83.368804,38.659695],[-83.397369,38.669786],[-83.411488,38.672553],[-83.446889,38.671942],[-83.456166,38.675971],[-83.472646,38.688747],[-83.491567,38.699001],[-83.512359,38.705512],[-83.534332,38.707302],[-83.60497,38.689317],[-83.616322,38.682807],[-83.620961,38.66413],[-83.63329,38.647773],[-83.650787,38.635932],[-83.670969,38.630968],[-83.714426,38.638454],[-83.754018,38.659695],[-83.821767,38.713487],[-83.837066,38.729763],[-83.850453,38.747626],[-83.865956,38.762152],[-83.908559,38.771674],[-83.949086,38.786566],[-83.972564,38.789252],[-84.062001,38.77558],[-84.084096,38.777655],[-84.195668,38.810411],[-84.217681,38.82335],[-84.227122,38.840766],[-84.228139,38.864691],[-84.231679,38.885199],[-84.237945,38.903144],[-84.247548,38.919623],[-84.257965,38.929226],[-84.271596,38.938788],[-84.283437,38.949897],[-84.288482,38.963935],[-84.290517,38.981391],[-84.296539,38.999864],[-84.306996,39.016791],[-84.322011,39.029486],[-84.364166,39.04682],[-84.388743,39.0539],[-84.408315,39.056708],[-84.419586,39.064887],[-84.430165,39.083075],[-84.444244,39.101671],[-84.466054,39.111396],[-84.508697,39.104682],[-84.594879,39.074001],[-84.637359,39.077216],[-84.688344,39.117865],[-84.703114,39.124376],[-84.708485,39.127794],[-84.721262,39.142686],[-84.730133,39.146104],[-84.742299,39.143744],[-84.751576,39.137885],[-84.76769,39.124376],[-84.842926,39.087958],[-84.873158,39.06155],[-84.870717,39.029486],[-84.842844,39.006456],[-84.828236,38.991319],[-84.822906,38.974189],[-84.833079,38.956895],[-84.868642,38.929389],[-84.877553,38.919623],[-84.865346,38.907172],[-84.849273,38.90115],[-84.805898,38.899115],[-84.784047,38.892849],[-84.78539,38.878119],[-84.798736,38.860948],[-84.812652,38.847602],[-84.819936,38.82807],[-84.806264,38.794867],[-84.819488,38.789252],[-84.901479,38.796088],[-84.935943,38.792304],[-84.999582,38.771674],[-85.145497,38.700629],[-85.186065,38.693671]],[[-85.186065,38.693671],[-85.205678,38.703192],[-85.239898,38.734198],[-85.257436,38.74079],[-85.320953,38.743232],[-85.436147,38.734646],[-85.454742,38.726345],[-85.45523,38.707384],[-85.447133,38.686591],[-85.439849,38.672553],[-85.431304,38.611029],[-85.410308,38.571967],[-85.414906,38.553331],[-85.428944,38.53852],[-85.482249,38.507595],[-85.495961,38.495063],[-85.511301,38.477647],[-85.526682,38.468573],[-85.569569,38.465277],[-85.590159,38.460883],[-85.619862,38.43183],[-85.643422,38.343451],[-85.665191,38.309434],[-85.700592,38.287543],[-85.72057,38.278835],[-85.758412,38.269639],[-85.770009,38.269965],[-85.775054,38.278673],[-85.780181,38.282538],[-85.792144,38.286322],[-85.805816,38.288926],[-85.816029,38.288926],[-85.829498,38.277126],[-85.851226,38.235907],[-85.860992,38.226874],[-85.878041,38.219672],[-85.891428,38.201972],[-85.900746,38.179877],[-85.905426,38.159247],[-85.914703,38.063544],[-85.924794,38.037665],[-85.93106,38.028876],[-85.938873,38.020819],[-85.948476,38.01378],[-85.960072,38.007758],[-86.008778,38.000922],[-86.032094,37.993923],[-86.041982,37.977078],[-86.051422,37.96955],[-86.072987,37.983181],[-86.110829,38.015245],[-86.133372,38.019965],[-86.183827,38.022813],[-86.203684,38.032009],[-86.219716,38.0421],[-86.259511,38.058905],[-86.27538,38.069892],[-86.284535,38.084296],[-86.286204,38.099799],[-86.282786,38.141872],[-86.29186,38.15351],[-86.343617,38.185899],[-86.361806,38.192816],[-86.382965,38.194525],[-86.394032,38.187771],[-86.381825,38.169135],[-86.361724,38.159532],[-86.341054,38.154364],[-86.332875,38.14704],[-86.350453,38.131293],[-86.392649,38.117011],[-86.416249,38.11518],[-86.428375,38.118232],[-86.433665,38.127875],[-86.438832,38.131659],[-86.450347,38.136583],[-86.461903,38.137234],[-86.467152,38.127875],[-86.463368,38.117214],[-86.445465,38.101386],[-86.439809,38.090359],[-86.443837,38.068915],[-86.460927,38.056464],[-86.483876,38.050727],[-86.505279,38.049384],[-86.518666,38.040351],[-86.523549,38.01911],[-86.520375,37.953396],[-86.523346,37.938178],[-86.535959,37.928575],[-86.589752,37.919257],[-86.595774,37.904364],[-86.59557,37.88463],[-86.603668,37.864366],[-86.624501,37.853624],[-86.648549,37.854031],[-86.663075,37.863715],[-86.655507,37.881171],[-86.644032,37.901313],[-86.663075,37.905463],[-86.707387,37.898546],[-86.742299,37.903754],[-86.772939,37.923651],[-86.794667,37.950629],[-86.802968,37.977078],[-86.818959,37.995144],[-86.85497,37.983913],[-86.8933,37.96072],[-86.916168,37.942939],[-86.929677,37.937608],[-86.987904,37.932685],[-87.005686,37.926581],[-87.019602,37.919013],[-87.031484,37.908026],[-87.043121,37.89171],[-87.070546,37.828721],[-87.086822,37.805365],[-87.118276,37.788682],[-87.129221,37.794257],[-87.137766,37.80036],[-87.152984,37.815985],[-87.158193,37.826606],[-87.160471,37.837958],[-87.164947,37.847032],[-87.176869,37.850775],[-87.195302,37.851833],[-87.209381,37.854844],[-87.219879,37.858954],[-87.255442,37.878038],[-87.32311,37.899359],[-87.341054,37.909125],[-87.359202,37.921576],[-87.381703,37.933132],[-87.405344,37.941962],[-87.426747,37.946357],[-87.468739,37.937771],[-87.510121,37.919745],[-87.54898,37.913275],[-87.583811,37.939521],[-87.586903,37.949408],[-87.585805,37.966132],[-87.591217,37.97366],[-87.598704,37.976386],[-87.607737,37.975124],[-87.615305,37.968777],[-87.61852,37.956326],[-87.614491,37.933905],[-87.596181,37.904853],[-87.591217,37.884223],[-87.601471,37.856879],[-87.627187,37.834499],[-87.657135,37.825141],[-87.680002,37.837104],[-87.682281,37.85224],[-87.671946,37.884833],[-87.673736,37.898546],[-87.686838,37.906806],[-87.703603,37.905544],[-87.719106,37.899034],[-87.728383,37.89171],[-87.737782,37.890977],[-87.777455,37.880235],[-87.797271,37.878038],[-87.819651,37.881619],[-87.838124,37.889472],[-87.853993,37.900987],[-87.868642,37.915595],[-87.887807,37.928534],[-87.909169,37.931505],[-87.926666,37.923204],[-87.933827,37.902289],[-87.929799,37.888861],[-87.899729,37.829657],[-87.945912,37.78852],[-87.950917,37.781846],[-87.96939,37.785712],[-88.005198,37.803778],[-88.022572,37.809149],[-88.0454,37.806667],[-88.049794,37.793402],[-88.050038,37.773546],[-88.060455,37.751166],[-88.075917,37.737616],[-88.132436,37.699286],[-88.143951,37.685736],[-88.156809,37.663845],[-88.163442,37.63996],[-88.156646,37.620795],[-88.139882,37.593451],[-88.134755,37.587917],[-88.105133,37.562771],[-88.083119,37.519599],[-88.091135,37.491238],[-88.123199,37.474555],[-88.30724,37.448065],[-88.365793,37.421413],[-88.382639,37.417589],[-88.427602,37.418158],[-88.448435,37.415717],[-88.465077,37.408759],[-88.478261,37.39822],[-88.488759,37.384589],[-88.507965,37.342597],[-88.512563,37.303249],[-88.503529,37.266913],[-88.481923,37.233832],[-88.451772,37.198676],[-88.434071,37.168484],[-88.433502,37.13642],[-88.454579,37.095974],[-88.484446,37.072333],[-88.521555,37.06745],[-88.561187,37.07685],[-88.633127,37.114814],[-88.907094,37.22016],[-88.955637,37.227729],[-89.002024,37.223212],[-89.043813,37.208523],[-89.078359,37.18537],[-89.088612,37.174628],[-89.122792,37.124091],[-89.15689,37.092882],[-89.178822,37.062201],[-89.176381,37.035834],[-89.158193,37.011501],[-89.12385,36.97956]],[[-85.186065,38.693671],[-85.186147,38.693671]],[[-85.186025,38.693671],[-85.186065,38.693671]]]}}]}