{"type":"FeatureCollection","source":"aourednik/historical-basemaps world_1783.geojson (GPL-3.0), https://github.com/aourednik/historical-basemaps ; subset used by scripts/build-sugar-map.mjs as cutters (Spanish Louisiana / New Spain split of the US west of the Mississippi, EIC India, Dutch Ceylon, Cape Colony, Dutch East Indies)","features":[{"type":"Feature","properties":{"NAME":"Dutch East Indies","SUBJECTO":"Dutch East Indies"},"geometry":{"type":"MultiPolygon","coordinates":[[[[140.8697767587578,-2.794752515836912],[140.94549087008593,-6.379222787901121],[140.7473402353203,-6.749241270109373],[140.94108108004687,-7.364977277799802],[140.96184829196093,-7.727363981291013],[140.94761184176562,-9.273864187284666],[140.71602920016406,-9.043785490080076],[140.2989759775078,-8.644266523405271],[139.97686294039843,-8.238173879667478],[139.79406264742968,-8.213153280302244],[139.44507888278125,-8.258392728849607],[139.1123762460625,-8.322665609403806],[138.9170179696953,-8.316736616178709],[138.95798781832812,-8.145039953275877],[139.1536360116875,-7.852243818327146],[139.15613845309375,-7.725116647764402],[138.9039564462578,-7.490504182859617],[138.6495619150078,-7.141485609098631],[138.66239455660937,-7.039763368650632],[138.8613539071953,-7.090180315061765],[138.9677992196953,-7.070877946897703],[139.02826980075,-7.019909299894529],[138.818064722625,-6.83604470638867],[138.5505628915703,-6.652304090543943],[138.42139724215625,-6.480980791135984],[138.29746535739062,-6.188879884763914],[137.82358840426562,-5.427235998197752],[137.59531691989062,-5.249770559354978],[137.38517287692187,-5.123125947996336],[137.11291030367968,-5.034737505003172],[136.22063735446093,-4.763372816129881],[135.65355971774218,-4.592993654295164],[135.3777571054375,-4.561812318845945],[135.06051162203906,-4.454455293699461],[134.776804957,-4.30889979748364],[134.80968764742968,-4.15629331020947],[134.76578811129687,-4.035634435697752],[134.67864516696093,-4.023115552946287],[134.40088942965625,-4.068201936765867],[134.2261457773125,-4.0367998257124],[134.04062941989062,-3.948230661436277],[133.8570051523125,-3.77066794781323],[133.7627210946953,-3.510306514784055],[133.8225355478203,-3.287733472868162],[133.75252822360156,-3.186203636213499],[133.66883376559375,-3.237232603117185],[133.56321242770312,-3.415403760954099],[133.50826552828906,-3.714226163908201],[133.39547255953906,-3.987760223432737],[133.2448988290703,-4.108839429899412],[132.93162063082812,-4.268395341917234],[132.8617658945,-4.192290224119382],[132.71282485446093,-3.887547172590452],[132.72295669039843,-3.81761995701428],[132.89564040621875,-3.696492828413206],[132.82718947848437,-3.505969680830198],[132.74932387789843,-3.398097671552854],[132.4953871103203,-3.220699466749387],[132.17724135836718,-3.043445505186277],[132.02495864352343,-3.018357194944578],[131.99888137301562,-2.923082031294065],[132.01580337008593,-2.821360744520383],[132.20194533785937,-2.801898635908323],[132.3762922616875,-2.839650787397581],[132.64737990817187,-2.947101749464231],[132.71871474703906,-2.934237636610227],[132.88431838473437,-2.781354822202879],[133.12084487399218,-2.596534170194822],[133.1866712900078,-2.621814645811277],[133.32134536227343,-2.742274202390867],[133.7807875009453,-2.722207464262205],[133.84302810153125,-2.664876855894285],[133.88360122164843,-2.429650939985471],[133.8550062509453,-2.245414413496214],[133.74759963473437,-2.258355058714109],[133.59275344332812,-2.347660221143919],[133.3207044931328,-2.38002697376843],[133.02511123141406,-2.361604608579832],[132.68067458590625,-2.381411470457273],[132.21895888766406,-2.344279445692258],[132.03403762301562,-2.204873956724363],[131.97339919528125,-2.11603680996533],[131.90626052340625,-1.817490614935117],[131.81559279879687,-1.665172256513792],[131.62676528414843,-1.595673717542844],[131.06443313082812,-1.539699472471433],[131.18339065035937,-1.405983485265928],[131.20951369723437,-1.291541494413572],[131.21142104586718,-1.02463797478314],[131.41967299899218,-1.011477567239957],[131.8336439462578,-0.826284266992765],[132.05417922457812,-0.654236055895048],[132.25400832614062,-0.526697672887998],[132.412303003875,-0.539065577074247],[132.59240249117968,-0.570447958990293],[133.26497939547656,-0.861315585657316],[133.49627212008593,-0.937068201585966],[133.90731337985156,-1.006078936144071],[134.0791731210625,-1.323459185644346],[134.14098647555468,-1.501257814451414],[134.01385024508593,-1.838348545118528],[133.98336318453906,-2.009996928259092],[134.08280471285937,-2.181369699522214],[134.1343031259453,-2.403682388349729],[134.1863050790703,-2.619645275160032],[134.28306106051562,-2.854586996122556],[134.3663587900078,-2.94337622074719],[134.45540908297656,-3.000382579847532],[134.5569563241875,-2.707814611479002],[134.595164332,-2.758574880644041],[134.63401320895312,-2.822047866865354],[134.77306655367968,-3.304742254301267],[134.84910109957812,-3.380851425214964],[134.95438674410937,-3.463242925687986],[135.0867414804375,-3.513791717573362],[135.24643996676562,-3.538871921583372],[135.50757888278125,-3.449326194807249],[135.73424819430468,-3.251824773832517],[136.27088454684375,-2.418122448011594],[136.42882827242968,-2.411427892729002],[136.91410354098437,-2.315044321104246],[137.08423903903125,-2.251135267301756],[137.1043958993828,-2.212950624510007],[137.11069777926562,-1.984163798376279],[137.20882705172656,-1.907682098432737],[137.70389846285937,-1.633348025366026],[137.8543196054375,-1.613961376234251],[138.63425734957812,-1.955445446058469],[139.591990503875,-2.37915674595471],[140.28515151461718,-2.612797416731077],[140.8697767587578,-2.794752515836912]]],[[[130.7838392587578,-3.879009164854246],[130.6092787118828,-3.8476068153822],[130.29705337008593,-3.67669502644177],[129.91410354098437,-3.385179199262815],[129.78130629977343,-3.321906246229368],[129.59493545016406,-3.335030473753172],[129.56847670992968,-3.379573024793821],[129.57946303805468,-3.582920469328123],[129.48665908297656,-3.595832265897947],[129.03065017184375,-3.412512458845335],[128.91456130465625,-3.253879703565794],[128.65294936617968,-3.343426145597654],[128.5226087900078,-3.464457429929929],[128.37597182711718,-3.547393001600462],[128.29239943942187,-3.464953817411619],[128.15240004977343,-3.261883176847654],[128.04180434664843,-3.058756269499021],[128.15272048434375,-2.96954695133801],[128.28879836520312,-2.956538356825071],[128.41224196871875,-2.981694854780393],[128.90940383395312,-2.999676145597654],[129.16782668551562,-3.138942398115354],[129.31138137301562,-3.132275976225095],[129.55611709078906,-2.985571064039426],[129.7428236337578,-2.978808797880369],[129.98289016207812,-3.035491861387449],[130.36870864352343,-3.129982627912717],[130.59347060641406,-3.307437099500852],[130.7252455087578,-3.485103763624387],[130.8058119150078,-3.764567531629758],[130.7838392587578,-3.879009164854246]]],[[[126.6604719491875,-3.875229515119749],[126.47194961032031,-3.850217260404783],[126.15001204928515,-3.628476537748533],[126.04566482028125,-3.425329126402097],[126.1111326547539,-3.298079885526853],[126.38226607760546,-3.253013052030759],[126.72658828219531,-3.233194030805784],[126.83733657321093,-3.290152706190305],[126.95238021334765,-3.429722703977781],[127.09376052340625,-3.518387712522703],[127.14246657809375,-3.619965471311765],[127.11218551119921,-3.721727050825315],[127.05604079684375,-3.747262634321409],[126.6604719491875,-3.875229515119749]]],[[[138.1758528085625,-8.55351010708447],[137.67589858492968,-8.45924798397656],[137.94112685641406,-7.994698442503172],[138.19266799410937,-7.676353849455076],[138.37630752047656,-7.555197633787351],[138.5680189462578,-7.523003019376951],[138.8054457040703,-7.675037302061277],[138.89475539645312,-7.78288833050366],[138.84481337985156,-7.865623392149168],[138.6990003915703,-8.151954092069822],[138.5838117929375,-8.228471197172361],[138.29720595797656,-8.540528692289548],[138.1758528085625,-8.55351010708447]]],[[[122.94861129244921,-8.377099432035642],[122.69619277438281,-8.492555059477048],[122.71121505221484,-8.597515501066404],[122.31264022311328,-8.744461454435545],[122.05070022067187,-8.86797944454785],[121.89853194674609,-8.849420942350584],[121.6944074960625,-8.99586907772656],[121.46780684908984,-8.964582838102537],[121.27553084811328,-8.914146818205076],[121.105662378875,-9.028924383207517],[120.97090438326953,-9.05463258175488],[120.80924514254687,-9.02320233730908],[120.54856399020312,-8.934785284086423],[120.07785323580859,-8.916735090299802],[119.93528274020312,-8.936113752409177],[119.84039596041796,-8.682082571073728],[119.85252669772265,-8.574008382841306],[120.02511123141406,-8.484657682462888],[120.32754043063281,-8.395017065092283],[120.56500533541796,-8.388149656339841],[121.07881453951953,-8.571352399870115],[121.27935317477343,-8.717112936063963],[121.4314451547539,-8.723139204069334],[121.57821181735156,-8.5893482342207],[121.78684524020312,-8.582537092252927],[121.97980025729296,-8.550282873197752],[122.16588881930468,-8.634251989408689],[122.37597945651171,-8.58177224545117],[122.3435774179375,-8.482058919950681],[122.53314498385546,-8.39809075741406],[122.71499923190234,-8.293130315824705],[122.75696090182421,-8.224905408903318],[122.72278884371875,-8.172424711271482],[122.64020064791796,-8.182921804472166],[122.69243911227343,-8.093704618498045],[122.76436904391406,-8.098953641935545],[122.8632078500664,-8.140937246366697],[122.943064722625,-8.240650571867185],[122.94861129244921,-8.377099432035642]]],[[[117.93772414645312,-8.54001084713574],[117.79683974703906,-8.49582139401074],[117.70542434176562,-8.438815511747556],[117.67735579928515,-8.362614072843748],[117.6909895273125,-8.267242826505857],[117.80621627291796,-8.178014196439939],[117.94793990573046,-8.161929525419431],[118.02465346774218,-8.202969945951658],[118.04830459078906,-8.298379339262205],[118.13014510592578,-8.342568792387205],[118.2671385141289,-8.27738706020947],[118.41998580416796,-8.324619688078123],[118.46731093844531,-8.39284459499951],[118.46200087985156,-8.596083082243162],[118.54416182955859,-8.52929250149365],[118.61765578707812,-8.392351545377927],[118.76082900485156,-8.379335798307615],[118.86329177340625,-8.480809606596189],[118.8726072641289,-8.671463407560545],[118.95416549166796,-8.655246175810056],[118.98202804049609,-8.702477850004392],[118.97054580172656,-8.88098756222363],[118.82820418795703,-8.786445058866697],[118.68881514987109,-8.760206617399412],[118.62546828707812,-8.786445058866697],[118.6580305429375,-8.85624448208447],[118.27463820895312,-8.926982320829588],[118.21065810641406,-8.886158384367185],[118.25399306735156,-8.765452779813963],[118.21599868258593,-8.739213384672361],[118.07720473727343,-8.859918035551267],[117.97385695895312,-8.975375570341306],[117.84085372408984,-8.954382337614256],[117.55727675875781,-9.055645383878904],[117.27662948092578,-9.145239271208006],[117.11590102633593,-9.122319616361814],[116.97642043551562,-9.177661336942869],[116.8003416391289,-9.14625970272656],[116.75419143160937,-9.114581502958494],[116.6631574960625,-9.059344686552244],[116.634470972625,-8.933391012235838],[116.69891646823046,-8.815979398771482],[116.66269210299609,-8.702477850004392],[116.74954513033984,-8.650625623747068],[116.85340407809375,-8.599548734708982],[116.95838454684375,-8.52929250149365],[117.05932906588671,-8.560976423307615],[117.33397201022265,-8.56673375515576],[117.51381209811328,-8.613260664030271],[117.55415633639453,-8.739213384672361],[117.68509963473437,-8.788426794096189],[117.81717208346484,-8.813561834379392],[117.90240767916796,-8.697229780241209],[118.03313735446093,-8.691981710478025],[118.05590346774218,-8.608012594267088],[117.93772414645312,-8.54001084713574]]],[[[115.07236007174609,-8.781361974760252],[114.89562514742968,-8.654628194853025],[114.51071456393359,-8.45207253841992],[114.45750716647265,-8.331433691068845],[114.64503768405078,-8.331021703764158],[114.87628463229296,-8.247906126066404],[115.0843992563164,-8.2347339764082],[115.50045302828906,-8.469005979582029],[115.34816268405078,-8.545598424955564],[115.2437010141289,-8.590313352628904],[115.07236007174609,-8.781361974760252]]],[[[103.71359542330859,-0.016971983],[103.68662551364062,-0.1183407977068],[103.50074294528125,-0.315737046285825],[103.40866378268359,-0.500223256632047],[103.2376203866875,-0.659467495962339],[103.31132033785937,-0.81817577032681],[103.38418868502734,-0.894272543474393],[103.74692824801562,-1.115909852071958],[104.12119582614062,-1.140521563574033],[104.22989181002734,-1.19111803917523],[104.29766372164843,-1.362546600385862],[104.35518935641406,-1.705587424322324],[104.35242751559375,-1.889892257734495],[104.47247603854296,-2.080278553053098],[104.56754592379687,-2.137265123411375],[104.81258681735156,-2.155803360029417],[104.6098127695,-2.575665630384641],[104.67776015719531,-2.670844711347776],[104.99460891207812,-2.466801322981077],[105.36515334567187,-2.580394424482542],[105.44490340670703,-2.599284805341917],[105.56392959078906,-2.713410295530515],[105.62867263278125,-2.910283721967893],[105.942820582,-3.214655078932005],[105.71109298190234,-4.104884065672117],[105.69315627535937,-4.308285154386716],[105.7966795297539,-4.73388234524365],[105.78708938082812,-4.930913366361814],[105.79636672457812,-5.22959128765698],[105.79559615573046,-5.350346483274656],[105.72847274264453,-5.827141679807859],[105.6892805429375,-5.897135652586179],[105.64068892916796,-5.929026044889646],[105.47567275485156,-5.814985193296629],[105.30404189547656,-5.580207742735105],[105.18672469576953,-5.542331613584714],[105.0691404672539,-5.758665956541257],[105.0327864023125,-5.87949887661572],[104.5634031625664,-5.600874342008787],[104.46468642672656,-5.639219678922849],[104.6421614023125,-5.975669302030759],[104.56848433932421,-6.071165479704099],[104.47688582858203,-5.982384122892576],[103.87250045260546,-5.341800607725339],[103.52345565280078,-4.999372400327879],[103.06859115084765,-4.61267987637158],[102.4622297616875,-4.181821741148191],[102.28652480563281,-3.97884026913281],[102.19675734957812,-3.756602920576292],[102.1106672616875,-3.604252494856077],[101.65957168063281,-3.319250978513914],[101.34546187838671,-3.014891304060178],[100.81207564791796,-2.336048044248777],[100.778758082,-2.177243627592283],[100.79625228366015,-2.024697698637205],[100.65030196627734,-1.630999959989744],[100.27200606783984,-0.970915175958829],[99.9719953866875,-0.501324929281431],[99.69655135592578,-0.152409575864034],[99.53036788424609,-0.016971983],[99.4010496469414,0.088420264438433],[99.11331466158984,0.221247725204272],[98.99888137301562,0.557795010522646],[98.68911269625781,1.370494566873354],[98.71933272799609,1.478585921243472],[98.67103103121875,1.618280254319949],[98.60055068453906,1.707089506105227],[98.30258468112109,1.935200057939333],[97.98250106295703,2.112426124528689],[97.73999312838671,2.20721348376636],[97.59714797457812,2.251384101823611],[97.54329970797656,2.410120330766482],[97.50870040377734,2.740469060853762],[97.42767623385546,2.924561105684084],[97.25448897799609,3.140228115037722],[96.88595870455859,3.514327131227297],[96.72036269625781,3.704589210466189],[96.39438155612109,3.646694503740115],[96.11843398532031,3.951094470933718],[95.82762435397265,4.223691068605227],[95.56092360934375,4.534462533906741],[95.3081541391289,4.959623895601077],[95.20507338961718,5.245321355775637],[95.19055465182421,5.410494409517092],[95.21608260592578,5.499504648164553],[95.28316024264453,5.55048569293384],[95.46405318698046,5.569940172151369],[95.6277342172539,5.525817476228518],[95.74045089205859,5.468877874330325],[96.02468398532031,5.215323530153078],[96.18733504733203,5.14578827472095],[96.60203078707812,5.07678660006885],[96.75271132907031,5.064410291627688],[96.99945357760546,5.109420381501955],[97.2037840219414,5.173398099855227],[97.38407424410937,5.180140577272219],[97.52933028658984,5.040668092683596],[97.94281295260546,4.520546041444582],[98.17378524264453,4.381262384370608],[98.19936660250781,4.311420045808596],[98.14550307711718,4.069854341462893],[98.6252928110039,3.657878957704348],[98.96240523776171,3.436213813737673],[99.49126723727343,3.126008592561526],[99.7959471078789,2.980528198198122],[99.85836318453906,2.904411159471316],[99.87222579440234,2.637564025834841],[99.86316207369921,2.56764467807178],[100.12141707858203,2.542796693757815],[100.45648482760546,2.117784582093996],[100.73194411715625,1.870563827470583],[100.8543196054375,1.877182088807864],[100.85605910739062,1.966142974809451],[100.8006086679375,2.0676923617876],[100.83172133883593,2.175784192994875],[101.05975631198046,2.080969177202029],[101.27575210055468,1.719237886384768],[101.47430709323046,1.548094235376162],[101.67528060397265,1.523109518007082],[101.86814406832812,1.434568367914004],[102.00979903658984,1.269662819818301],[102.13589004000781,0.939505957082552],[102.27828505953906,0.742825351671023],[102.47178176364062,0.622509859517855],[102.7016096445,0.565819166616244],[103.04658797701953,0.528438948110384],[103.24048903903125,0.458958230928225],[103.46307662448046,0.287862710670275],[103.72215560397265,0.015183419004721],[103.71359542330859,-0.016971983]]],[[[127.63065627535937,-0.016971983],[127.6274900766289,0.060609206572813],[127.44135573825,0.536802314237399],[127.52215865573046,0.784808121637148],[127.48679641207812,0.848269008115572],[127.42350295504687,0.981572769597811],[127.43973067721484,1.127760849908633],[127.56863692721484,1.52837248893146],[127.79976943453906,1.897417865709109],[127.91808608492968,1.732464037851138],[127.98659804782031,1.573755584672732],[127.96258071383593,1.446609579042239],[127.85166457614062,1.268447004274172],[127.68892196139453,0.924957893804354],[127.71624282321093,0.7788660153902],[127.80199721774218,0.715509377435488],[127.84568313082812,0.779154144243044],[128.04166701754687,0.963846944288058],[128.10222915133593,1.199092708543581],[128.18233779391406,1.262813292459292],[128.54502395114062,1.447870336488528],[128.60857680758593,1.384465657190127],[128.58509353121875,1.270043812707705],[128.6319074960625,1.022326670602602],[128.47263625582812,0.926659069970889],[128.26258376559375,0.767338298276705],[128.18961623629687,0.627388440088076],[128.26124099215625,0.583066128209872],[128.46226027926562,0.526307068780703],[128.64156630953906,0.431374095395846],[128.63419631442187,0.367817424253268],[128.70582107028125,0.209110222772402],[128.39673903903125,0.278340481237215],[128.20275405367968,0.347818844035906],[128.03744033297656,0.366516731694979],[127.90069106539843,0.296321831659121],[127.864695582,0.099249944106383],[127.8867903085625,-0.016971983],[127.94561294039843,-0.326332218929487],[128.09920791110156,-0.60560516266461],[128.28150466403125,-0.80220989136334],[128.36971572360156,-0.929115451856809],[128.29943374117968,-1.024591006323057],[128.18279555758593,-0.9295159950697],[127.88390639742968,-0.637848056837278],[127.63631728610156,-0.307938195749479],[127.63526442965625,-0.130004316552835],[127.63065627535937,-0.016971983]]],[[[106.5526609750664,-3.175201572462278],[106.16431716403125,-2.998099960371214],[105.99474624117968,-2.890428461118894],[105.9024153085625,-2.725398220106321],[105.88230422457812,-2.560203470274168],[105.81182387789843,-2.382413543745237],[105.58349898776171,-2.204967178388792],[105.45276168307421,-2.160768665357786],[105.2517576547539,-2.173908866926389],[105.1996565195,-2.110476411863523],[105.32142165621875,-1.817892469450193],[105.42667678317187,-1.709628261610227],[105.65572646578906,-1.956973589941221],[105.72237685641406,-1.747112430616575],[105.86343673190234,-1.626060642286497],[105.89634231051562,-1.803927220388609],[106.03653243502734,-2.203994430586057],[106.32863906344531,-2.571952022596555],[106.6427488656914,-2.711081422849851],[106.52344802340625,-2.79394880680676],[106.47066024264453,-2.921170391126829],[106.5526609750664,-3.175201572462278]]],[[[105.18477920016406,-6.865668691679197],[105.14388564547656,-6.781699575468259],[105.28616622408984,-6.771202959104734],[105.46737960299609,-6.813187994047361],[105.6334715219414,-6.755237497373777],[105.6639891000664,-6.519298471494871],[105.6721678110039,-6.456322588010984],[105.81074813326953,-6.481571592374998],[105.79152968844531,-6.256896890684324],[105.89147475680468,-6.150919832273679],[105.93318465670703,-6.025983728452879],[106.02416518649218,-6.080723680540281],[106.30810073336718,-6.1309479847395],[106.52126601657031,-6.1099518909895],[106.62800887545703,-6.309376157804685],[106.86400130709765,-6.269573606535154],[106.93512252291796,-6.135954298063474],[106.94509414157031,-6.025983728452879],[107.06136611422656,-6.078479208036619],[107.33963302096484,-6.154148019834714],[107.52461532076953,-6.350759901090818],[107.67702773532031,-6.33036843685742],[107.76868728121875,-6.451916612669187],[107.96960738619921,-6.438776887937742],[108.17332747897265,-6.355717577024656],[108.30900100192187,-6.450752176328855],[108.4753904672539,-6.685549654051023],[108.55577376803515,-6.920526422544675],[108.95341018160937,-6.938729204221922],[109.16108993014453,-7.023108400388914],[109.38199141940234,-6.988648809477048],[110.02727797946093,-7.044451154752927],[110.24257186373828,-7.031283773466306],[110.39589217623828,-6.954677499815183],[110.49153426608203,-6.662121690794187],[110.61329177340625,-6.541098035856443],[110.81458571871875,-6.534306444212156],[110.91451552828906,-6.629429735227781],[111.04471877535937,-6.851591505094724],[111.32965377291796,-6.908178247495847],[111.56827834567187,-6.920361436887937],[111.91680434664843,-6.957741655393797],[112.27479079684375,-7.026889719053464],[112.40491012057421,-7.13464442638989],[112.53656295260546,-7.264518655821043],[112.50087264498828,-7.464936651273923],[112.62459090670703,-7.674394048734861],[112.67842391451953,-7.718775667234617],[113.07268813571093,-7.876816667600828],[113.26259139498828,-7.908177770658689],[113.55871108492968,-7.913900770231443],[113.76137832125781,-7.830829061552244],[113.94835952242968,-7.824078477903562],[114.23076919039843,-7.931510366483884],[114.25219253024218,-8.020443357511716],[114.13760665377734,-8.211366094633298],[114.0691633554375,-8.433954633756834],[114.32927993258593,-8.782966054960447],[114.10475448092578,-8.6881088390791],[113.74381545504687,-8.599913991972166],[113.47468856295703,-8.486092008634763],[113.07378676852343,-8.347123540922361],[112.83578017672656,-8.34763852505322],[112.57097915133593,-8.462617315336423],[112.4143553110039,-8.488374151273923],[112.09337905367968,-8.444576658292966],[111.4391355844414,-8.38243142513867],[110.77773574313281,-8.320307172819334],[110.41538527926562,-8.206685461088377],[110.03817275485156,-7.991411127134519],[109.54362014254687,-7.839940942808347],[109.03720382174609,-7.720286764188963],[108.61044600924609,-7.702139772459226],[108.36070540866015,-7.83614007382031],[108.1602278085625,-7.855642713590818],[107.72973159274218,-7.786660112425047],[107.36764052828906,-7.564995683714109],[107.20682052096484,-7.533564008756834],[106.48369887789843,-7.503360189481931],[106.3202391000664,-7.433792985960203],[106.34466842135546,-7.370187677427488],[106.54658797701953,-7.160022176786619],[106.3655271860039,-7.039659418150144],[106.11754897555468,-6.995707906767088],[105.8899641366875,-6.932635225340086],[105.75223067721484,-6.920232690855222],[105.18477920016406,-6.865668691679197]]],[[[123.49192336520312,-10.352161802335935],[123.60406020602343,-10.129458822294431],[123.61453536471484,-9.887912191435056],[123.66542342623828,-9.747970022245603],[123.96877578219531,-9.531214155241209],[124.61989882907031,-9.250147260709959],[124.91790297946093,-9.046112455412107],[125.07982161959765,-8.77246705441113],[125.28976729830859,-8.702098287626463],[125.99981978854296,-8.656074918791013],[126.40941146334765,-8.559843458219724],[126.6529035898125,-8.540258802458006],[127.04376510104296,-8.475847639127927],[127.09718612155078,-8.507518209501463],[127.14146712741015,-8.59640447048779],[127.03492263278125,-8.691975988432127],[126.87253859957812,-8.806733526273923],[126.14822677096484,-9.081591047331052],[125.53232863864062,-9.279951490446287],[125.21153548678515,-9.395053304716306],[124.93854049166796,-9.554545797392088],[124.4480696054375,-9.987807668729978],[124.15423873385546,-10.204543508573728],[123.95632461032031,-10.24310914425488],[123.70786574801562,-10.345344938322263],[123.49192336520312,-10.352161802335935]]],[[[120.27981093844531,-10.378160871549802],[120.18238357028125,-10.34658757595654],[119.76977065524218,-10.074174322172361],[119.40983108004687,-9.871551908537107],[119.25387099703906,-9.82740155605908],[119.03172591647265,-9.770682729765134],[118.90040877780078,-9.681976713224607],[118.94903090914843,-9.58653012661572],[119.1162596078789,-9.522610105558591],[119.56256392916796,-9.508944906278806],[119.78872970065234,-9.457600988432127],[119.94579604586718,-9.590743459745603],[120.46243575533984,-9.926486410185056],[120.58129409274218,-10.097849287077146],[120.52504256686328,-10.244148649259763],[120.41421035250781,-10.352451719328123],[120.27981093844531,-10.378160871549802]]],[[[117.55868819674609,3.980721078828616],[117.54050734957812,3.940269790605349],[117.68385604342578,3.629244171098513],[117.58021834811328,3.565474830583376],[117.33471206149218,3.545888744310183],[117.07397750338671,3.507199846223635],[117.16311171969531,3.40572627635364],[117.21508315524218,3.272402368501467],[117.13904097994921,3.170576892808718],[117.23602584323046,3.075473390535159],[117.34200576266406,3.024877153352541],[117.58774093112109,2.650510631517214],[117.82918837985156,2.314259611085696],[117.84828475436328,2.22534617038135],[117.6963606210625,1.900947533563418],[117.73006728610156,1.799350224450869],[117.91282180270312,1.590053401902956],[118.24725631198046,1.387442909196658],[118.5172605844414,1.165625892595095],[118.76522353610156,0.823025427774233],[118.55611709078906,0.746316216901583],[118.21828750094531,0.75829192252521],[117.85968306979296,0.865542970613284],[117.70828536471484,0.820732377485079],[117.53428939303515,0.610662959531588],[117.37497237643359,0.197262354210658],[117.33888534030078,-0.016971983],[117.31821731051562,-0.13965517280932],[117.37765029391406,-0.431837983413892],[117.42981246432421,-0.622370518728452],[117.37029555758593,-1.003784157320219],[117.25522139987109,-1.00403193382855],[117.04563430270312,-0.934580959364133],[116.57888320407031,-1.367720283552366],[116.38421157321093,-1.660468496366697],[116.04627517184375,-1.934458293005186],[116.24550155123828,-2.105623163267332],[116.27270034274218,-2.283497489973264],[116.34913161715625,-2.416793264433103],[116.04077437838671,-2.442873872801023],[116.24452498873828,-2.702999271436887],[116.2482176156914,-2.798310674711423],[116.20198348483203,-2.900100149198728],[115.95590499362109,-3.199323333784299],[115.86336806735156,-3.377465166135984],[115.80630782565234,-3.536469854398923],[115.56814101657031,-3.803909935041624],[114.98581222018359,-4.078456319853025],[114.71241286715625,-4.206153310819822],[114.58087447604296,-4.295410074278074],[114.49362472018359,-4.155785001798826],[114.50462630709765,-3.965103305860715],[114.3562498422539,-3.603159584089475],[114.21847060641406,-3.431875862165647],[114.09949782809375,-3.349512495084959],[113.97059920748828,-3.362500585600095],[113.7444563241875,-3.598138727232175],[113.60839370211718,-3.611134685560422],[113.46075728854296,-3.382671751066404],[113.32001021823046,-3.294006742521482],[113.12349990328906,-3.243590511366087],[112.94931319674609,-3.040595687910276],[112.79538253268359,-2.971020854994016],[112.63836196383593,-3.333612121626096],[112.57773116549609,-3.42271725086804],[112.40625289401171,-3.448501743360715],[112.24562362155078,-3.398008979841428],[112.04686263522265,-3.45563641934033],[111.90337661227343,-3.614832796140867],[111.739451441375,-3.646959222837644],[111.7133055063164,-3.399166025205808],[111.72859481295703,-3.259319700285154],[111.58721450289843,-2.795695461317258],[111.43599227389453,-2.973974622770506],[110.79682448825,-3.172363914533811],[110.65250686129687,-2.98837510494824],[110.3650617929375,-2.995357669874387],[110.23842910250781,-3.065532125517088],[110.10230544528125,-3.078540958448606],[110.07638839205859,-2.786260999723631],[110.06593612155078,-2.493952907606321],[109.94623092135546,-1.858707822843748],[109.94090560397265,-1.642648614927488],[109.78280166110156,-1.306190170332151],[109.59978774508593,-1.122298039480405],[109.24452498873828,-0.932415403410154],[109.17891982516406,-0.869010366483884],[109.42858413180468,-0.709605909868436],[109.18953231295703,-0.538537539526182],[109.07335952242968,-0.405348338171201],[109.1577635141289,-0.074725050463634],[109.12417891940234,-0.016971983],[108.99905684908984,0.198187835530085],[108.84097579440234,0.331290803865237],[108.870310816375,0.541057251409335],[108.81431106051562,0.807816825822634],[108.89605239352343,1.100297294572634],[108.95550063571093,1.259293399766726],[109.14623549899218,1.520239554361147],[109.28236678561328,1.882722817376894],[109.42594436129687,1.870326720193667],[109.5175047250664,1.820520602182192],[109.64750197848437,1.464270912126345],[109.76119521578906,1.331484638170046],[110.2112303110039,0.889251731351656],[110.34764388522265,0.851918242887301],[110.54860213717578,0.726002536729617],[110.96594527682421,0.912814162687106],[111.08094314059375,0.913487218335909],[111.31779006442187,0.813207887128634],[111.56202224215625,0.763813756421847],[111.74188521823046,0.8411538228548],[111.979685816375,0.995116077379031],[112.1609373422539,1.231366358712954],[112.39998153170703,1.429807148889346],[112.61597732028125,1.462877951577944],[112.80948165377734,1.41318591685657],[113.05993941744921,1.300269685701174],[113.29626754244921,1.199977956727786],[113.54732039889453,1.131564579919619],[113.67678359469531,1.145051680520815],[113.88653853854296,1.305187188104433],[114.09573653658984,1.382704816774172],[114.48472121676562,1.461281977609438],[114.65887740573046,1.595793567613406],[115.07629683932421,2.399057708696169],[115.0419187875664,2.735676132158083],[115.13988784274218,2.888775192216677],[115.43088057955859,2.998545728639407],[115.53003982028125,3.170721374467654],[115.48180678805468,3.615263067201418],[115.53554824313281,3.869759164766116],[115.70677474459765,4.156728349641604],[115.81805709323046,4.227286420778078],[116.02704146823046,4.234886728242678],[116.36340621432421,4.198757730439944],[116.65661147555468,4.16237648578052],[116.93757918795703,4.170395456270022],[117.13814071139453,4.152523599580569],[117.47722915133593,4.021110139802737],[117.55868819674609,3.980721078828616]]],[[[119.69212630709765,-0.016971983],[119.69748977145312,0.005301356331152],[119.91373733004687,0.539560459569735],[120.10897353610156,0.724265299752993],[120.23886397799609,0.78809043021564],[120.43191054782031,0.636000238374514],[120.5623045297539,0.776074849084658],[120.63552382907031,0.922386907056612],[120.76742843112109,1.138722024873537],[120.99067977389453,1.16463466735248],[121.26308730563281,1.101677857354922],[121.59117415866015,0.860923193410677],[121.79239181002734,0.848638795331759],[122.180857691375,0.868553482011599],[122.39585402926562,0.79276081176166],[122.73288253268359,0.672761403039736],[122.99247268160937,0.774987183526797],[123.82620528658984,0.738667331651492],[124.15023330172656,0.796562574819369],[124.4321775766289,0.95603521914844],[124.5271482797539,1.08333321662311],[124.45688155612109,1.203904829934878],[124.54513839205859,1.331182442621035],[124.71951583346484,1.439590655282778],[124.85249618014453,1.624150954202456],[124.98246291598437,1.649851642564578],[125.01622298678515,1.541904054597659],[124.9832258554375,1.300364695504946],[124.93084243258593,1.160450540498537],[124.89410689791796,1.103187762216372],[124.85741713961718,1.045913063005251],[124.42142775973437,0.479422323421282],[124.23398116549609,0.301086150125307],[124.02541640719531,0.256151609138293],[123.47180465182421,0.153285957888407],[123.24890426119921,0.184571988896174],[122.98314193209765,0.374633483604235],[122.46555617770312,0.405279241517825],[121.9478254648125,0.378750823453707],[121.55244735201953,0.39695244284038],[121.08506301364062,0.376877628282351],[120.82631972750781,0.414438031629366],[120.52431777438281,0.40107762070064],[120.33727553805468,0.356190972045702],[120.14297011813281,0.19054914267425],[120.0261946054375,-0.016971983],[119.95679763278125,-0.14028224347468],[119.87274459323046,-0.464555867000776],[119.90378097018359,-0.680548943563657],[120.02179244479296,-0.90270958094235],[120.10934737643359,-0.985140778108793],[120.29080489596484,-1.086422003790098],[120.40746596774218,-1.175135292097288],[120.50657180270312,-1.448180831953245],[120.58729079684375,-1.51790825276013],[120.68838790377734,-1.536749996229368],[121.05537703951953,-1.548669613882261],[121.16762069186328,-1.427686013265806],[121.461131128875,-0.988569356485563],[121.63409713229296,-1.013609625383573],[121.77213576754687,-1.095924533888059],[121.99535659274218,-1.114498533292966],[122.15894607028125,-1.012472964807706],[122.45979598483203,-0.941913939996915],[122.73920730075,-0.877764619871336],[122.859568628875,-0.744048453851896],[122.98146346530078,-0.718368090673643],[123.19114974459765,-0.806881107374387],[123.25004104098437,-0.902080334707456],[123.21274856051562,-1.232609428449827],[123.00192550143359,-1.112321414037901],[122.75714400729296,-1.093783892675596],[122.5942869516289,-1.227595485731321],[122.41957381686328,-1.463097251936155],[122.22288802584765,-1.654172100111204],[121.74647048434375,-1.852209486051756],[121.65008071383593,-1.998589791341978],[121.58575728854296,-2.011434234663206],[121.47732070407031,-1.992600239797788],[121.26705459078906,-1.935861147924619],[121.25345138033984,-1.961313880964475],[121.26491073092578,-2.101103462263303],[121.36021712741015,-2.15809003262158],[121.66402724703906,-2.417983688398557],[121.87427047213671,-2.652677454038816],[122.25816634616015,-3.211096681638914],[122.2148924203789,-3.357360757871824],[122.14427474459765,-3.662573017164426],[122.19034865817187,-3.846769250913816],[122.39139846285937,-4.087840951963621],[122.64091018160937,-4.284319795652586],[122.66892531832812,-4.38594476132031],[122.64838698825,-4.513099111601072],[122.45239547213671,-4.488106168791013],[122.15899947604296,-4.514159120603757],[121.97351363619921,-4.648028291746336],[121.87277511080859,-4.95966473965283],[121.64871505221484,-4.947441972776609],[121.44132522067187,-4.865271486326414],[121.39284041842578,-4.789106287046629],[121.41649154147265,-4.496701158567625],[121.50799849948046,-4.235927976652341],[121.06832412203906,-3.855556406065183],[120.88079360446093,-3.716151393934446],[120.80245498141406,-3.595567382856565],[120.81849959811328,-3.487484134718137],[120.94636825045703,-3.309265054746824],[120.99899581393359,-3.048587001844602],[120.92468551119921,-2.826322235151487],[120.59280684908984,-2.801614440962034],[120.36663344821093,-2.897433914228635],[120.14419082125781,-3.075864233061033],[120.21621993502734,-3.234580434843259],[120.28029921969531,-3.653891004606443],[120.24955275973437,-3.882746137663084],[120.1433821054375,-4.397769846006589],[120.30685714205859,-4.804168142362791],[120.30215743502734,-4.943993486448484],[120.13268569430468,-5.230362333341795],[120.12441543063281,-5.332062639280515],[120.24806502780078,-5.58600751309033],[119.92161849459765,-5.662985242887693],[119.690867457,-5.771526731535154],[119.47684005221484,-5.803768075987058],[119.3667478891289,-5.65782729534741],[119.29458144625781,-5.422828115507322],[119.36497024020312,-5.276509679838377],[119.44623855075,-5.06660357861157],[119.47729781588671,-4.672496713682371],[119.50447371920703,-4.189417280241209],[119.44800857028125,-3.960755504652219],[119.461131128875,-3.808197893186765],[119.3652830453789,-3.630455411955076],[119.22566512545703,-3.573552764936643],[119.04976180514453,-3.650206007047849],[118.79143813571093,-3.663470186277586],[118.79641250094531,-3.479157842680173],[118.68360427340625,-2.901070751234251],[118.74261764010546,-2.761141456648069],[118.96372512301562,-2.525512136503416],[119.17457107028125,-2.175528682752805],[119.24707320651171,-1.959309853597837],[119.20736983737109,-1.546321786924558],[119.20475295504687,-1.43193618206616],[119.24367049655078,-1.228493012472349],[119.39629653414843,-0.904066480680662],[119.5972395273125,-0.878214098497587],[119.5781965585625,-0.490620143696027],[119.69212630709765,-0.016971983]]]]}},{"type":"Feature","properties":{"NAME":"Cape Colony","SUBJECTO":"Netherlands"},"geometry":{"type":"MultiPolygon","coordinates":[[[[22.58853326836805,-34.13458312878917],[22.54913047274707,-34.14788094906445],[22.26212981661914,-34.16752663998242],[21.997218165007812,-34.26340524105664],[21.66930106600879,-34.5056079998457],[21.345505747405273,-34.544395841642576],[21.147055658904296,-34.53845254330273],[20.846911463347656,-34.50092355160351],[20.514832529631835,-34.53339044003125],[20.256072077361328,-34.62289086727734],[19.88380721530078,-34.99228707699414],[19.32089332064746,-34.73285714535351],[19.27934936007617,-34.504131712003904],[19.18137267550586,-34.421715177580076],[18.966362986174804,-34.39672891049023],[18.840062174407226,-34.43512002377148],[18.724238428679687,-34.21926537899609],[18.570267710295898,-34.19417230038281],[18.503073725310546,-34.308704771085935],[18.487156900969726,-34.39771691708203],[18.346327814666015,-34.347156919523435],[18.292923960295898,-34.24557534603711],[18.41277221163867,-34.022877134367185],[18.459075007048828,-33.83212701229687],[18.07305053195117,-33.22279015926953],[17.927741083708984,-33.09596673397656],[17.867608103362304,-32.99441186337109],[17.94545844515918,-32.91797677425976],[18.231507334319335,-32.89832345394726],[18.308697733489257,-32.707508482023435],[18.33569053134082,-32.338821805998045],[19.961848333428396,-31.877773528354886],[20.19858140824088,-31.99614006576113],[20.494497751756487,-33.12062217112044],[22.09244600674077,-33.35735524593292],[22.506728887662618,-33.71245485815165],[22.58853326836805,-34.13458312878917]]]]}},{"type":"Feature","properties":{"NAME":"Viceroyalty of New Spain","SUBJECTO":"Spain"},"geometry":{"type":"MultiPolygon","coordinates":[[[[-92.10361138108867,29.549556569082764],[-92.11670395413282,29.541635118440432],[-92.45743471298215,29.565612806411934],[-92.64325424710157,29.57868918033008],[-93.0421876577461,29.692298494294924],[-93.44552322903516,29.76776846499805],[-94.06056996749841,29.699064750217232],[-94.1415300039375,29.690021120027346],[-94.42584702053907,29.54268606753711],[-94.60208603421094,29.54916914554004],[-94.79687210598829,29.563354097322268],[-94.85739609280469,29.783898912385744],[-95.0070314077461,29.758161149934573],[-95.05766006985547,29.675384126619143],[-94.84457870999219,29.346345506624026],[-95.2391862539375,29.05825003238086],[-95.60276505032422,28.79865988345508],[-96.01456924954297,28.65605505557422],[-96.20308395901563,28.636594377473635],[-96.38913437405469,28.661634050325198],[-96.71655746975782,28.71180685611133],[-96.77357956448438,28.62267454715137],[-96.57712265530469,28.425990663484377],[-96.68452927151563,28.24772986026172],[-96.71434059392224,28.22960513970934],[-96.83145615139844,28.15840109439258],[-97.11536881008985,28.10694845767383],[-97.44714829007032,27.98544653506641],[-97.5678224233711,27.908885560945315],[-97.316700902375,27.750470720247073],[-97.26656815091016,27.67427595706348],[-97.56320663967969,27.36210211367969],[-97.63229843655469,27.228431306794924],[-97.637989964875,26.846942506746096],[-97.57326981106641,26.560979448274416],[-97.45142075100782,26.217908464387698],[-97.2599610952461,25.811372362092776],[-97.42493149319532,25.442277513459963],[-97.65813919583204,25.073043428376955],[-97.7418946889961,24.72957571597461],[-97.82254501858594,24.20810469241504],[-97.81478592434766,23.37533339114551],[-97.87469193020704,22.841205202058596],[-97.88202377835157,22.33262213321094],[-97.62811752835157,21.55123671145801],[-97.50419327298047,21.189153276399416],[-97.22339340725782,20.763837419465823],[-96.88145157376172,20.357709489778323],[-96.79518600979688,20.15447386355762],[-96.57883926907422,19.919734559968752],[-96.34066483059766,19.481610856965823],[-96.01226517239454,18.929256044343752],[-95.84385391751172,18.796125017122073],[-95.53918167630079,18.764991365388674],[-95.34308334866407,18.77176245303516],[-95.08328720608594,18.702395997957034],[-94.81647202053907,18.49954756350879],[-94.58994003811719,18.271188341096682],[-94.24197098294141,18.240150056794924],[-93.78490158596875,18.349187456086916],[-93.08748337307813,18.554090105012698],[-92.45908829251172,18.688920579866213],[-92.09788223782422,18.75961645694141],[-92.10702225247266,18.515859209016604],[-91.72974106350782,18.41570433230762],[-91.61098953762891,18.544532381013674],[-91.47900101223829,18.633794389680666],[-91.52561661282422,18.744794450715823],[-91.70248123684766,18.823484025911135],[-91.21970078030469,19.102496705964846],[-90,19.38150557132129],[-90,19.75351484866504],[-90,19.94667585940723],[-90,20.161298356965823],[-90,20.6763931140459],[-90,20.991174303010744],[-90,21.141408525422854],[-90,21.160729967073244],[-89.86282822171094,21.249875627473635],[-89.54745956936719,21.2950511798418],[-89.05808731594922,21.397792421296877],[-88.60106369534375,21.564044557527346],[-88.33372208157422,21.59004171939258],[-88.10938736477735,21.565087877229494],[-87.59693619290235,21.483537279084963],[-87.37093063870313,21.570655427888674],[-87.20057388821485,21.528873048738284],[-86.92158981839063,21.30062635989551],[-86.90023514309766,21.167178712800784],[-86.93589493313672,20.97639998050098],[-87.06995865383985,20.80448492617969],[-87.3133058218086,20.581485353425784],[-87.50814529934766,20.390227876619143],[-87.65071579495313,20.189910493806643],[-87.65972610989454,19.87513693423633],[-87.773976293,19.741412721589846],[-87.85821243801954,19.58231123538379],[-87.78857895413282,19.512536607698244],[-87.63708969632032,19.574662767366213],[-87.68220993557813,19.281348787263674],[-87.80035873928907,18.74336203189258],[-87.84949204007032,18.488984666780276],[-87.87709518948438,18.380864702180666],[-88.03013321438672,18.62128408999805],[-88.10500809231641,18.824548326448244],[-88.13767715969922,18.894399248079104],[-88.31140610257032,18.74146994204883],[-88.32046219387891,18.49439962954883],[-88.5167970327461,18.487248979524416],[-88.59691330471875,18.28614767642383],[-88.86667343655469,17.90060766787891],[-89.04038712063672,18.02223166079883],[-89.16563126126172,17.979306779817385],[-89.15433975735547,17.831187807039065],[-89.25114151516797,15.897466264680666],[-88.94077774563672,15.904618822053713],[-88.80428024807813,15.861696802095217],[-88.66434189358594,15.725766740754885],[-88.6013917593086,15.811617456392092],[-88.6312989858711,15.983316026643557],[-88.4801530508125,15.912461839631838],[-88.27393051663282,15.747230134919924],[-88.1334733633125,15.76064833255176],[-87.85814377346875,15.882015787080569],[-87.57061478176954,15.90804823489551],[-87.23618027249219,15.851557336763186],[-87.02135941067579,15.820244394258303],[-86.37202927151563,15.802567087129397],[-86.05767532864454,15.904934488252444],[-85.88712784329297,15.994289003328127],[-85.63204666653516,15.874069772676272],[-85.2774171499336,15.887545190767092],[-84.93398758450391,15.932765565828127],[-84.65045639553907,15.933375917390627],[-84.42528244534375,15.876661859468264],[-84.17139908352735,15.762790285066409],[-84.18845840969922,15.603841386750979],[-84.23436447659375,15.50204237552051],[-84.13201614895704,15.375135026887698],[-83.77785965481641,15.267836175874514],[-83.52716537991407,15.236602388337893],[-83.41719528714063,15.00085886569385],[-83.31351944485547,14.767507158235354],[-83.29642197171094,14.614999376252932],[-83.85824454282101,14.18462760074714],[-84.09496329410977,12.527596341725895],[-83.9000571473054,11.888261763595107],[-83.92833420315625,11.499222360566897],[-83.91412827053907,11.251382432893557],[-83.83133408108594,11.041812501863284],[-83.74664017239454,10.87845953555469],[-83.37719437161329,10.480383478120608],[-83.20409103909375,10.200237832979006],[-83.0626725820625,10.055239282563967],[-82.96153732815625,10.034444414094729],[-82.75197311917188,9.744477830842776],[-82.55354782620313,9.586018167451662],[-82.55992600003125,9.583112321809573],[-82.59304520169141,9.52784689517383],[-82.8077897695625,9.61074598880176],[-82.90659042874219,9.518636308625979],[-82.91264053860547,9.374426446870608],[-82.91257950344922,9.113361917451662],[-82.68433090725782,8.975199304536623],[-82.86273666897657,8.80940493197803],[-82.80673691311719,8.569923006013674],[-82.97500320950391,8.40412863345508],[-82.86563583889844,8.321231447175784],[-82.95746323147657,8.047210298494143],[-82.95613571682813,8.25675543399219],[-83.08955856839063,8.394918046907229],[-83.08514877835157,8.65062864871387],[-83.25491806546094,8.717297159150881],[-83.36231705227735,8.763351045564455],[-83.41244217434766,8.72650869937305],[-83.26605698147657,8.54219301791553],[-83.22823044339063,8.440971933320803],[-83.27895065823438,8.413340173677248],[-83.60548111477735,8.54781874270801],[-83.66387650051954,8.674799524263186],[-83.55081650296094,8.827565751985354],[-83.5328874258125,8.999204240754885],[-83.6149415639961,9.151563249543948],[-83.83384415188672,9.297263704255862],[-84.14668747464063,9.42652853579883],[-84.18226334133985,9.491004548982424],[-84.492482152375,9.537350259736819],[-84.63473984280469,9.684430681184573],[-84.6312989858711,9.873896203950686],[-84.69706436673047,9.988387666658205],[-84.80889603176954,10.032406412080569],[-85.06826492825391,10.191024385408205],[-85.25545212307813,10.310764871553225],[-85.15429398098829,10.080495439485354],[-85.11555954495313,9.9809003696001],[-84.92559525051954,9.960756860688967],[-84.8441667226875,9.841015420869631],[-85.0887956289375,9.583112321809573],[-85.15362259426954,9.701166711763186],[-85.31414505520704,9.827929101899905],[-85.56641098538282,9.922728143647952],[-85.7115983633125,10.030457101777834],[-85.77779099026563,10.138352952913088],[-85.82429977932813,10.360705934480471],[-85.76652237454297,10.55024965854053],[-85.61732956448438,10.651567064241213],[-85.62086197415235,10.826575838044924],[-85.87022110501172,10.927892290071291],[-85.70701309719922,10.983156763032717],[-85.73269363919141,11.085458360627932],[-85.83965775051954,11.07758291812305],[-86.01414200344922,11.367618165925784],[-86.43359085598829,11.767129503206057],[-86.88496872464063,12.255553804353518],[-87.26144882717969,12.623397432283205],[-87.58677383938672,12.832435213044924],[-87.67490860501172,12.91487368197803],[-87.68542954007032,13.016548715547366],[-87.40427109280469,13.029873453096194],[-87.54422470608594,13.327498994783205],[-87.55553146878125,13.36561544986133],[-87.7705812124336,13.500850282625002],[-87.75484177151563,13.466874681428713],[-87.84631058255079,13.441262803987307],[-87.84171768704297,13.321997247651858],[-87.94866653958204,13.171761117891116],[-88.25457474270704,13.192493043855471],[-88.63806625882032,13.25522955508594],[-89.40196701565625,13.482405267671389],[-89.98917099514844,13.678186975435061],[-90,13.772705636934084],[-90,13.797786317781252],[-90,13.937248788789553],[-91.24203201809766,13.951556764558596],[-91.51571365872266,14.058868013337893],[-91.92468735257032,14.3541332110918],[-92.15540024319532,14.542796693757815],[-92.47207352200391,14.792342744783205],[-92.90052506008985,15.19187506289844],[-93.33048721829297,15.534199319795412],[-93.81161209622266,15.920901857332034],[-94.05164047757032,16.07930716128711],[-94.0753907827461,16.11115988345508],[-94.36295029202344,16.22483404727344],[-94.83466049710157,16.31917341800098],[-95.13016983548047,16.299468599275393],[-95.49766251126172,16.12070807071094],[-95.99271103421094,15.86537417025928],[-96.3329362539375,15.750238977388186],[-96.7516603139961,15.781122766450686],[-97.07761856594922,15.875764451936526],[-97.29378983059766,15.964297853425784],[-97.88092514553907,16.052028261140627],[-98.14564987698438,16.172238908723635],[-98.43546005764844,16.362310014680666],[-98.85616013089063,16.596610628083987],[-99.20922562161329,16.716630540803713],[-99.97906967678907,16.892968736604494],[-100.41263290921094,17.057321153596682],[-100.73741623440625,17.221908174470705],[-101.2207765249336,17.41792257876758],[-101.48717972317579,17.57628210635547],[-101.9926042226875,18.02653082461719],[-102.08551498928907,18.0581127032793],[-102.3583268789375,18.0321117267168],[-102.66820236721875,18.09501799197559],[-103.49393936673047,18.353892885164065],[-103.74825760403516,18.594913087800784],[-103.97491165676954,18.880490861848635],[-104.19729324856641,19.05801161380176],[-104.66939255276563,19.31764753909473],[-104.94791122952344,19.43783911319141],[-105.17298599758985,19.659867845491213],[-105.50686356106641,20.10414846988086],[-105.67043015042188,20.351729951814455],[-105.68733688870313,20.402551256135744],[-105.61999222317579,20.472619615510744],[-105.39281937161329,20.51125296206836],[-105.31201645413282,20.587705217317385],[-105.29104324856641,20.67039068789844],[-105.43972488919141,20.835366807893557],[-105.23433395901563,21.14095076175098],[-105.21614548245313,21.3126235827959],[-105.29359909573438,21.522262178376955],[-105.62825485745313,21.953839860872073],[-105.57400986233594,22.08744963260059],[-105.50843521633985,22.163882814363284],[-105.53994461575391,22.284598909333987],[-105.83889481106641,22.563691698030276],[-106.5116471914375,23.36329611392383],[-106.75728317776563,23.58528669925098],[-107.1906251577461,24.06117209048633],[-107.40375229397657,24.295949541047854],[-107.77061935940625,24.555829606965823],[-107.91568466702344,24.644536577180666],[-107.98668381253125,24.765176378206057],[-108.01261612454297,24.981280885652346],[-108.07753464260938,25.06379660220508],[-108.2255143789375,25.152492128328127],[-108.49932571926954,25.24092634768848],[-108.68295761624219,25.380416475251955],[-108.84755417385938,25.615321718171877],[-108.96924301663282,25.627786241487307],[-109.15561386624219,25.57652624698047],[-109.26274582425,25.646236024812502],[-109.33612534085157,25.81138952823047],[-109.33828445950391,25.957625947908205],[-109.13188644925,26.288686357454104],[-109.1887941030586,26.441173158601565],[-109.52662369290235,26.720227800325198],[-109.72421738186719,26.605363450959963],[-109.89268967190625,26.884776674226565],[-109.94591995755079,27.043618761018557],[-110.10728165188672,27.13866575808887],[-110.38207718411329,27.214393220857424],[-110.52550217190625,27.34762343020801],[-110.58186813870313,27.46195562930469],[-110.55912491360547,27.633683763459963],[-110.52135178128125,27.754569612458987],[-110.6044435171211,27.856137834504885],[-110.85694595852735,27.95099028201465],[-111.0641603139961,27.99507101626758],[-111.27093979397657,28.10909231753711],[-111.69163223782422,28.496102891877932],[-111.90643021145704,28.813590608552737],[-112.03291794339063,29.061330400422854],[-112.32323166409375,29.435903154329104],[-112.65433212796094,29.91851194949512],[-112.73714920559766,30.109120927766604],[-112.90797897854688,30.41401632876758],[-113.01670548001172,30.566411577180666],[-113.08502670803907,30.7697769031084],[-113.0663346914375,30.998756013826174],[-113.0520753530586,31.13870009036426],[-113.30399033108594,31.24629744143848],[-113.66166397610547,31.334586702302737],[-113.68861862698438,31.538037858918948],[-113.74631973782422,31.607879243806643],[-113.95213791409375,31.690127931550784],[-114.08228012600782,31.5435863360918],[-114.195118871125,31.524274431184573],[-114.83865067044141,31.815496049836916],[-114.96706100979688,31.36367567630176],[-114.98750778714063,31.166480623201174],[-114.97266098538282,31.128356538728518],[-114.85349747219922,30.975968919709963],[-114.73472305813672,30.842668138459963],[-114.72235580960157,30.372075639680666],[-114.68277451077344,30.14322432132129],[-114.45304581204297,29.838450990632815],[-114.38871475735547,29.762277208284182],[-114.09960648098829,29.642058931306643],[-113.82907578030469,29.400966249421877],[-113.59289261380079,29.10258635135059],[-113.32190414944532,28.5562759265459],[-113.12408920803907,28.429513536409182],[-112.97636124173047,28.410745225862307],[-112.86987015286329,28.334659181550784],[-112.72362228909375,27.705453477815432],[-112.6778077749336,27.629241548494143],[-112.56714340725782,27.55953177066211],[-112.34384628811719,27.5345531329668],[-112.28406998196485,27.50925215335254],[-112.18733688870313,27.31233938784961],[-112.11509415188672,27.01999243350391],[-111.91486069241407,26.664350114778323],[-111.69413467923047,26.69659575076465],[-111.59381577053907,26.76039656253223],[-111.48350235501172,26.55715139956836],[-111.32870956936719,25.89621504397754],[-111.08983322659375,25.419850908235354],[-110.79756638089063,24.880048356965823],[-110.7664308218086,24.61308439822559],[-110.77242752591016,24.37784155459766],[-110.65569778958204,24.21915205569629],[-110.48522659817579,24.149579606965823],[-110.31049057522657,24.226239763215823],[-110.20493790188672,24.31546553225879],[-109.94029709378125,23.95364149661426],[-109.82423874417188,23.69323118777637],[-109.61520096341016,23.57923849673633],[-109.4885987905586,23.573146425203127],[-109.42892929592969,23.433415971711916],[-109.516896214875,23.19163092227344],[-109.57826706448438,23.13429983706836],[-109.889210668,22.866620622590823],[-110.00360580960157,22.885448060945315],[-110.11656662503125,23.0695815906084],[-110.22465988675,23.39993818850879],[-110.50243088284375,23.66000708194141],[-110.78369614163282,23.79927595706348],[-111.01585861721875,24.014943681672854],[-111.39151474514844,24.243024431184573],[-111.90574356594922,24.686976991609377],[-112.09280869046094,24.890025697664065],[-112.16581436673047,25.01066740603809],[-112.06849381008985,25.455945573762698],[-112.08434006253125,25.570357881501955],[-112.30381485501172,26.021325670198244],[-112.41098495999219,26.19277151675586],[-112.55796524563672,26.31963499637012],[-112.75584885159375,26.363725267366213],[-112.98117538967969,26.503144823030276],[-113.28500839749219,26.807702623323244],[-113.42209335842969,26.74382933230762],[-113.58534714260938,26.768930040315432],[-114.15325638333204,27.104739747957034],[-114.4778566030586,27.243947587922854],[-114.88133713284375,27.681853853181643],[-114.94397446194532,27.738952241853518],[-115.05460831204297,27.853173814729494],[-114.74889847317579,27.785588823274416],[-114.47916885891797,27.7797866687334],[-114.21439835110547,27.90751799197559],[-114.1046647695625,28.05399664492969],[-114.06274887600782,28.34024580569629],[-114.06728836575391,28.42289312930469],[-114.27322861233594,28.708621583894534],[-114.48294540921094,28.911672197297854],[-114.97781082669141,29.31125982852344],[-115.42139908352735,29.53289946170215],[-115.60230728665235,29.685151658967776],[-115.69373032132032,29.92025526614551],[-115.8160905508125,30.212537370637698],[-115.85713669339063,30.282409273103518],[-116.05837723294141,30.33921965213184],[-116.12582870999219,30.498076997712893],[-116.13782974758985,30.765149675325198],[-116.22926041165235,30.943025194124026],[-116.50948807278516,31.27315291018848],[-116.70472427883985,31.59074553103809],[-116.70605942288282,31.70522268863086],[-116.61071487942579,31.87714346499805],[-116.96032425442579,32.156261049226565],[-117.07459732571485,32.30230291934375],[-117.17368027249219,32.520553194001955],[-117.19301315823438,32.56282766909961],[-117.2820558218086,32.72463186831836],[-117.30405136624219,32.754867158845705],[-117.3184327749336,32.7359691485918],[-117.33116623440625,32.713294588044924],[-117.34905716458204,32.754867158845705],[-117.34806534329297,33.05340536685352],[-117.49671646633985,33.32543142886524],[-117.70934006253125,33.52853735537891],[-118.00658890286329,33.73146017642383],[-118.23708054104688,33.82004126162891],[-118.28837296048047,33.84322317691211],[-118.3537110952461,33.82810553164844],[-118.35272690335157,33.786536775544924],[-118.39270493069532,33.77520330996875],[-118.43768021145704,33.794173799470705],[-118.50314041653516,33.858340822175784],[-118.46909042874219,33.892352662996096],[-118.50195023098829,33.98304709048633],[-118.60435196438672,34.096419893220705],[-118.731739964875,34.10775717349414],[-118.87235733548047,34.069964967683596],[-119.29153915921094,34.22112234683399],[-119.42016312161329,34.36850317569141],[-119.6128434805,34.478099428132815],[-119.78493210354688,34.459205232576174],[-120.20444199124219,34.531009279207034],[-120.52868362942579,34.50833090396289],[-120.58253952542188,34.591468416169924],[-120.68786331692579,34.62170370669727],[-120.70843216458204,34.701060853914065],[-120.66632553616407,34.753970704988284],[-120.73717209378125,34.98071249575977],[-120.67728897610547,35.189334474519534],[-120.77957626858594,35.23243673892383],[-120.83675858059766,35.22865255923633],[-120.94863602200391,35.289229951814455],[-120.9485597280586,35.334659181550784],[-120.91479965725782,35.37630423159961],[-120.92773148098829,35.474742494539065],[-121.08413406887891,35.55812796206836],[-121.19852158108594,35.68679388614063],[-121.38518997708204,35.785255037263674],[-121.56112381497266,36.06552466006641],[-121.65173813382032,36.099620424226565],[-121.74290176907422,36.23977240176563],[-121.92680069485547,36.338267885164065],[-121.99720474758985,36.57644613833789],[-121.99803635159375,36.67849310489063],[-121.91785904446485,36.675479494050784],[-121.85145279446485,36.74896963687305],[-121.83826920071485,36.89572485537891],[-121.9320573476875,37.008975587800784],[-122.01836868801954,37.02933844180469],[-122.11721512356641,37.01276358218555],[-122.25330826321485,37.06961401553516],[-122.49409958401563,37.30083807559375],[-122.45914169827344,37.395606599763674],[-122.50000473538282,37.5358844623125],[-122.55814072171094,37.56621512027149],[-122.57808395901563,37.77476080508594],[-122.55206009426954,37.84301718325977],[-122.49871536770704,37.85439261050586],[-122.45412918606641,37.82405813784961],[-122.42120071926954,37.7899242267168],[-122.46006485501172,37.74442633242969],[-122.390919652375,37.65342291446094],[-122.26291367092969,37.59654959292774],[-122.21055313626172,37.54347189517383],[-122.11918350735547,37.5358844623125],[-122.29259964505079,37.7899242267168],[-122.37463852444532,37.85439261050586],[-122.38383194485547,37.960574708894534],[-122.46683212796094,38.00988348575],[-122.48976608792188,38.164527498201174],[-122.5482682851875,38.16159018130664],[-122.553029027375,38.097110353425784],[-122.53137680569532,37.89611013980274],[-122.57305618801954,37.888526521638674],[-122.70501419583204,37.975745759919924],[-122.75864120999219,37.95678671450977],[-122.99081131497266,38.13883551211719],[-123.05200668850782,38.30193289370899],[-123.22155472317579,38.53343924136524],[-123.46047684231641,38.70407065005664],[-123.74095627346875,38.96676977725391],[-123.79630753079297,39.03041037173633],[-123.74487778225782,39.07595404239063],[-123.89214798489454,39.41376455874805],[-123.81972977200391,39.60736807437305],[-123.93385025540235,39.8227611407793],[-122.02765029381126,42.00026957869458],[-120.82829929327043,43.75931771282114],[-119.86881849283776,43.919231179559915],[-118.98929442577449,43.67936097945175],[-117.23024629164793,42.320096512172135],[-115.39124142415199,41.840356111955806],[-113.2324096231785,41.840356111955806],[-112.12290249200925,42.641666817800264],[-104.97922601498912,32.85803981341347],[-92.10361138108867,29.549556569082764]]]]}},{"type":"Feature","properties":{"NAME":"India","SUBJECTO":"British East India Company"},"geometry":{"type":"MultiPolygon","coordinates":[[[[80.45975783785937,15.773146234468264],[80.48413732629336,16.167540532033808],[79.81598840485645,16.347426780112976],[80.20145893645467,16.75859534715108],[80.50983536173325,16.75859534715108],[80.7154196452523,17.092669807869534],[80.94670196421123,17.503838374907637],[80.99809803509099,17.940704977385618],[81.33217249580944,18.069195154585024],[81.58915285020827,18.50606175706301],[82.38579194884458,20.227830131535054],[83.00254479940173,20.56190459225351],[83.25952515380055,20.895979052971967],[83.74778782715829,21.075865301051138],[84.44163478403509,21.075865301051138],[85.1132078500664,19.442306123689455],[84.90661910494921,19.18141134829883],[84.65877059420703,18.933131776765627],[84.26272872408984,18.455840669587893],[83.98768142184375,18.20749434085254],[83.68471816500781,18.08344992251758],[83.3813963266289,17.71067961306934],[83.0769758554375,17.500392518953127],[82.84608708480512,17.383410614907284],[82.74959090670703,17.33451994510059],[82.54642013033984,17.226087175325198],[82.35399917086718,17.085914216951174],[82.26742080172656,16.857019029573244],[82.23458388766406,16.647302232698244],[82.08141616305468,16.46274145694141],[81.78898147067187,16.32870253177051],[81.59676650485156,16.30287703128223],[81.36909774264453,16.34686430545215],[81.2531004281914,16.22591169925098],[81.08790114840625,15.826792322114748],[80.96311477145312,15.723398767427248],[80.73596480807421,15.837270341829104],[80.45975783785937,15.773146234468264]]]]}},{"type":"Feature","properties":{"NAME":"Madras","SUBJECTO":"British East India Company"},"geometry":{"type":"MultiPolygon","coordinates":[[[[80.2018366912248,13.491685502285232],[80.31988051852343,13.333213411287112],[80.31345656832812,13.104481302217287],[80.22375777682421,12.831091485933108],[79.92280868014453,12.106162630037112],[79.86674412719772,11.969091013849939],[79.77744135169664,12.312835216051614],[79.77744135169664,12.544117535010544],[79.9573275997758,12.82679592484924],[79.93162956433592,13.03238020836829],[79.9573275997758,13.289360562767104],[80.2018366912248,13.491685502285232]]]]}},{"type":"Feature","properties":{"NAME":"Bengal","SUBJECTO":"British East India Company"},"geometry":{"type":"MultiPolygon","coordinates":[[[[87.86748794039843,21.696960054353518],[87.64071944674609,21.563081346467776],[87.19423964938281,21.384255968049807],[86.93719771823046,21.288428865388674],[86.81869796237109,21.186534486726565],[86.874836882944,21.587289581001645],[86.74926742158648,22.846773909418307],[86.31687004266325,23.495369977803136],[85.96701761600417,23.888341492566646],[85.96701761600417,24.20412251271267],[85.7038667658825,24.467273362834355],[85.33545557571213,24.309382852761342],[85.33545557571213,24.888314723029055],[84.8617840454931,25.098835403126404],[84.44074268529839,25.046205233102064],[84.44074268529839,24.309382852761342],[84.19613047861719,24.341997813652167],[83.65129013493333,24.414643192810015],[83.49339962486032,24.625163872907365],[83.59865996490899,25.098835403126404],[83.38813928481164,25.256725913199418],[82.96709792461694,24.99357506307773],[82.96709792461694,25.57250693334544],[82.59868673444657,25.888287953491464],[82.80920741454393,26.151438803613154],[82.91446775459261,26.519849993783517],[84.11158514467444,26.07145097404341],[84.45343566538834,26.370570179668075],[84.19704777485292,26.712420700381973],[83.94290513811924,26.999430116408774],[83.87434676608203,27.382001481965823],[84.13611129244921,27.53824385257129],[84.35837081393359,27.404315553621096],[84.64774611910937,27.374557100251955],[84.71129897555468,27.270391069368166],[84.66636184176562,27.069509111360354],[84.96470931491015,27.00254400821094],[85.09327987155078,26.876056276277346],[85.37141707858203,26.757009111360354],[85.63416579684375,26.883494935945315],[85.77540114840625,26.85373457522754],[85.75989058932421,26.704934678987307],[85.90053847750781,26.59332426638965],[86.07120803317187,26.697492204622073],[86.39541915377734,26.63052710147266],[86.7765379281914,26.46684416385059],[87.0493879648125,26.600764833406252],[87.16964248141406,26.437078081086916],[87.349314722625,26.38499792666797],[87.51009658297656,26.444518648103518],[87.63218978366015,26.407317720369143],[87.94073775729296,26.46684416385059],[88.09216597994921,26.444518648103518],[88.23191359957812,26.757009111360354],[88.60182180866893,26.640441529355197],[88.86752608737109,26.908403001741213],[89.153758082,26.827533327058596],[89.40531447848437,26.790891252473635],[89.79632857760546,26.69479902835254],[89.83439162692187,26.685449205354494],[90,26.71859510989551],[90,26.778745256379885],[91.16184524020312,26.750220857576174],[90,26.360255315069487],[90,25.9662434512302],[91.43432931871358,26.097580739176628],[91.56566660666,26.053801643194483],[91.43432931871358,25.791127067301623],[91.56566660666,25.70356887533734],[91.47810841469573,25.484673395426626],[91.43432931871358,25.26577791551591],[91.74078299058858,25.003103339623053],[91.52188751067787,25.003103339623053],[91.56566660666,24.346416899890905],[91.30299203076714,24.346416899890905],[91.25921293478501,24.12752141998019],[91.47810841469573,24.08374232399805],[91.82834118255286,23.733509556140906],[91.82834118255286,23.558393172212334],[91.91589937451715,23.51461407623019],[92.04723666246358,23.689730460158763],[92.17857395041001,23.427055884265904],[92.26613214237429,22.94548582846233],[92.52880671826715,22.595253060605188],[92.50995162448046,22.110425554231448],[92.59760573825,21.387023530916018],[92.23697188815234,21.149966798738284],[92.12366774996875,20.996430955842776],[92.06685927828906,21.115090928987307],[91.94604781588671,21.362578950837893],[91.84590438326953,21.908670030549807],[91.57107070407031,22.543313585237307],[91.41017440280078,22.720834337190432],[91.08137801608203,22.561330400422854],[90,22.560958467439455],[90,22.325391374543948],[90,22.134809099153323],[90,22.05844648929004],[90,22.0199046954668],[90,21.930253587678713],[89.90268996676562,22.107825838044924],[89.86968520602343,22.13322790713672],[89.796336207,21.832069002107424],[89.67017653903125,21.719838701204104],[89.57895186862109,21.70058210940723],[89.4566145273125,21.94171293826465],[89.23388198336718,21.65538176150684],[89.07225326022265,21.77433928103809],[88.99476912936328,21.62947615237598],[89.02553847750781,21.546960435823244],[88.88093856295703,21.51488646121387],[88.7234602304375,21.53995283694629],[88.65697768649218,21.857440553621096],[88.56759932955859,21.89536627383594],[88.45388320407031,21.73631437869434],[88.37705520114062,21.577336870149416],[88.29957107028125,21.551770769075198],[88.24792769869921,21.596122346833987],[88.12160781344531,21.86265143008594],[88.05304244479296,21.93874128909473],[87.86748794039843,21.696960054353518]]]]}},{"type":"Feature","properties":{"NAME":"Ceylon (Dutch)","SUBJECTO":"Netherlands"},"geometry":{"type":"MultiPolygon","coordinates":[[[[80.07652572116015,9.279133401826662],[80.17807296237109,9.445190034822268],[80.10958388766406,9.686597429231448],[80.34759810885546,9.47033079715137],[80.66241744479296,9.29945620150928],[80.7676267953789,9.121781907991213],[81.01491836032031,8.772848688081545],[81.09344008883593,8.626881204561037],[81.04907515963671,8.47429522128467],[81.06007674655078,8.410785280183596],[81.32613662203906,8.25886782260303],[81.4459715219414,7.928720079377932],[81.8048582406914,7.313169561342043],[81.86616805514453,7.084561429933352],[81.77901748141406,6.753964982942385],[81.59991744479296,6.448580347017092],[81.47649176379242,6.316065257565576],[81.43387893160937,6.270314298585696],[81.2026853891289,6.079191289857668],[80.85180190524218,5.951348863557619],[80.56289962252734,5.931666456178469],[80.34107497653125,5.969314657167239],[80.22215560397265,6.058007322267336],[80.12766555270312,6.216660104707522],[80.0167723031914,6.49599989505176],[79.85409072360156,7.061153493837161],[79.83872512301562,7.353393636659426],[79.84073165377734,7.696509443239016],[79.83821686130435,7.81597091101397],[79.98109734196933,7.905627722219299],[79.83821686130435,7.815970911013971],[79.83217147311328,8.103148065522952],[79.72417739352343,8.416576944307131],[79.80870345553515,8.647491060212893],[79.6746321054375,8.804930292085452],[79.70579055270312,8.930883966401858],[79.89601424655078,8.92038782687549],[80.05261519869921,9.113884530977053],[80.07652572116015,9.279133401826662]],[[80.78640485875758,6.574180418416448],[81.05641434733707,6.473188004174884],[81.05641434733707,6.473188004174883],[81.3450215135294,6.607871348397966],[81.39641758440916,7.276020269834881],[81.16513526545023,7.584396695113456],[81.13943723001034,8.175451510230726],[80.72826866297224,8.175451510230726],[80.72826866297224,8.792204360787878],[80.5226843794532,8.869298467107521],[80.41989223769367,8.432431864629539],[80.29140206049426,8.303941687430132],[80.11151581241509,8.329639722870013],[80.03442170609546,8.124055439350963],[80.07855673535747,7.744494187697708],[80.07855673535745,7.744494187697722],[80.78640485875758,6.574180418416448]]]]}},{"type":"Feature","properties":{"NAME":"Luisiana","SUBJECTO":"France"},"geometry":{"type":"MultiPolygon","coordinates":[[[[-104.97922601498912,32.85803981341347],[-112.12290249200925,42.641666817800264],[-111.7931884225295,42.87979364575786],[-112.11301535600705,44.47892831314564],[-115.31095493398266,49.056671904619115],[-115.164601293,49.056190095857424],[-112.86183640042188,49.06856878848438],[-112.52904984036329,49.063792787507815],[-110.67026230374219,49.05406530948047],[-110.18009659329297,49.0698314532793],[-108.460743871125,49.059363923982424],[-108.06731888333204,49.06148871035938],[-106.43957993069532,49.06365927310352],[-104.26153275051954,49.05566366763477],[-103.99100967923047,49.05711706729297],[-102.6702394155586,49.05107458682422],[-101.71109482327344,49.056232057527346],[-100.45978256741407,49.043250642732424],[-99.14807602444532,49.050304017976565],[-98.20086380520704,49.048831544832034],[-97.59412857571485,49.05207785220508],[-96.33501907864454,49.039142213777346],[-95.12574478665235,49.05221518130664],[-94.81984421292188,49.05071219058399],[-94.90664616184803,47.641377031371704],[-93.3510079574132,47.15012286155018],[-93.63757288980909,46.617930844243524],[-94.08788921214548,46.5769929967584],[-94.4153919920265,46.20855236939226],[-94.4153919920265,45.96292528448149],[-94.12882705963061,45.512608962145094],[-93.31007010992808,45.18510618226408],[-93.22819441495781,44.93947909735331],[-91.34505343064197,43.956970757710266],[-91.05848849824608,43.30196519794823],[-91.18130204070147,43.22008950297798],[-91.01755065076095,42.851648875611836],[-90,42.646959638186196],[-90,42.23758116333493],[-90,41.623513451058024],[-90,41.418824213632384],[-90,41.05038358626624],[-91.01755065076095,40.88663219632573],[-91.42692912561222,40.55912941644471],[-91.34505343064197,39.7813103142273],[-90,39.3309939918909],[-90,38.92161551703963],[-90,38.839739822069376],[-90,38.266609957277595],[-89.56425706503894,37.77535578745607],[-89.52331921755382,37.3659773126048],[-89.23675428515793,37.07941238020891],[-89.23675428515793,36.670033905357634],[-89.48238137006868,36.62909605787251],[-89.68707060749432,35.93315265062535],[-90,35.81033910816997],[-90,35.15533354840793],[-90,34.827830768526916],[-90,34.33657659870539],[-90,34.13188736127976],[-91.273412197543,33.80438458139874],[-90,32.4227322287757],[-91.63161836303786,31.501630660360345],[-91.63161836303786,30.938735257439845],[-91.273412197543,30.63170140130139],[-91.17106757883019,30.32466754516294],[-90,30.038699708894534],[-89.86671921292188,30.131703935579104],[-89.68429276028516,30.09036787600879],[-89.38001724758985,29.873363100007815],[-89.68600174466016,29.705651842073244],[-89.67696854153516,29.591218553499026],[-89.55886551419141,29.432508073762698],[-89.2916993764961,29.367013536409182],[-89.18898483792188,29.26924666018848],[-89.03152939358594,29.11900671573047],[-89.27151962796094,29.057983003572268],[-89.49815079251172,29.09566267581348],[-89.62234970608594,29.284345231965823],[-89.97789475003125,29.406213365510744],[-90,29.501367174104494],[-90,29.373748384431643],[-90,29.32567747683887],[-90,29.30435713382129],[-90,29.23948820681934],[-90,29.222343049958987],[-90,29.141584001497073],[-90,29.11900671573047],[-90,29.108672700837893],[-91.24035355130079,29.320912919954104],[-91.42898270169141,29.54306562991504],[-91.95100876370313,29.832030855134768],[-92.22781082669141,29.80209120364551],[-91.97832962551954,29.625356279329104],[-92.10361138108867,29.549556569082764],[-104.97922601498912,32.85803981341347]]]]}}]}